OBJECTID,Borough,Unique_Asset_ID,Holding_Name,Address,Post_Code,Sub_Unit,UPRN,Description,Occupied_by_TfL,Land_Buildings,Asset_Category,Tenure,Site_Area_Hectares,Building_Area_GIA_sqm,Building_Area_NIA_sqm,Easting,Northing,Field18,Field19,Field20,Field21,Field22,Field23,Field24,Field25,Field26,Field27,Field28,Field29,Occupied_by,Built_out
1,Ealing,3,Acton Central - Overground,"Churchfield Road, London",W3 6BH,,,London Overground Limited Station,Yes,Land & buildings ,Operational asset,OTH,,,,520632,180296,,,,,,,,,,,,,Yes,Land only
2,Ealing,7,ACTON TOWN,"Gunnersbury Lane, London",W3 8HN,,,London Underground Limited Station,Yes,Land & buildings ,Operational asset,FH,,,,519462,179611,,,,,,,,,,,,,No,Land & buildings 
3,Croydon,9,ADDINGTON VILLAGE - TRAM,"Kent Gateway, Addington",CR0 5AR,,,London Bus Services Limited Tram Stop,Yes,Land & buildings ,Operational asset,OTH,,,,537057,163744,,,,,,,,,,,,,,
4,Croydon,10,ADDISCOMBE - TRAM,"Lower Addiscombe Road, Croydon",CR0 7AA,,,London Bus Services Limited Tram Stop,Yes,Land & buildings ,Operational asset,OTH,,,,534188,166294,,,,,,,,,,,,,,
5,City of London,14,ALDGATE,"Aldgate High Street, London",EC3N 1AH,,,London Underground Limited Station,Yes,Land & buildings ,Operational asset,FH,,,,533629,181246,,,,,,,,,,,,,,
6,Ealing,15,"Land off Gunnersbury Avenue, Ealing",Ealing Riding School,W5 3JQ,,,"green belt/ met open , leased land",Yes,Land & buildings ,Limited marketability,FH,,12127,,518649,179944,,,,,,,,,,,,,,
7,City of London,15,ALDGATE BUS STATION,"Aldgate High Street, London",EC3N 1BJ,,,London Bus Services Limited Bus Premises,Yes,Land & buildings ,Operational asset,FH,,,,533660,181158,,,,,,,,,,,,,,
8,Tower Hamlets,16,ALDGATE EAST,"Whitechapel High Street, London",E1 6BF,,,London Underground Limited Station,Yes,Land & buildings ,Operational asset,OTH,,,,533857,181359,,,,,,,,,,,,,,
9,Hillingdon,16,"Land adj Green Lane, Northwood",Northwood,HA6 2XN,,,under contract,Yes,Land only,Subject to disposal process,FH,,9183,,509280,191388,,,,,,,,,,,,,,
10,City of Westminster,17,ALDWYCH (DISUSED),"Strand, London",WC2R 2ND,,,London Underground Limited Disused Station,Yes,Land & buildings ,Operational asset,FH,,,,530846,180914,,,,,,,,,,,,,,
11,Ealing,17,"Land at Hanger Lane, Ealing",Webbs Garden Centre and Inglis Road,W5 2EB,,,Sold subject to contract,No,Land only,Subject to disposal process,FH,,7754,,518579,181000,,,,,,,,,,,,,,
12,Lambeth,18,"Land at Christchurch Road, Streatham","Streatham Hill, Christchurch Road",SW2 4AP,,,"vacant and surplus, held pending operational need ",No,Land only,Limited marketability,FH,,3334,,530495,173416,,,,,,,,,,,,,,
13,Tower Hamlets,19,ALL SAINTS - DLR,"East India Dock Road, London",E14 0EH,,,Docklands Light Railway Limited Station,Yes,Land & buildings ,Operational asset,FH,,,,537979,180993,,,,,,,,,,,,,,
14,Brent,20,ALPERTON,"Ealing Road, Wembley",HA0 4LL,,,London Underground Limited Station,Yes,Land & buildings ,Operational asset,FH,,,,518029,183799,,,,,,,,,,,,,,
15,Greenwich,20,The Woolwich Town Centre Sites,Woolwich x 3 sites in town centre,SE18 6EU,,,under contract,Yes,Land & buildings ,Subject to disposal process,FH,,6409,,543773,178841,,,,,,,,,,,,,,
16,Hillingdon,21,"Land adj Austins Lane, Ruislip","Ruislip depot, land adjacent ",HA4 6NS,,,green belt land adjacent to depot held pending operational need,Yes,Land & buildings ,Limited marketability,FH,,162572,,508762,186194,,,,,,,,,,,,,,
17,Chiltern,21,AMERSHAM,"Station Approach, Amersham",HP6 5AZ,,,London Underground Limited Station,Yes,Land & buildings ,Operational asset,FH,,,,496390,198187,,,,,,,,,,,,,,
18,Croydon,22,AMPERE WAY - TRAM,"Ampere Way, Waddon",CR0 3DD,,,London Bus Services Limited Tram Stop,Yes,Land & buildings ,Operational asset,FH,,,,530669,166478,,,,,,,,,,,,,,
19,Tower Hamlets,22,"The Wapping Sites, London E1",Wapping High Street,E1W 3NN,,,Sold subject to contract,Yes,Land & buildings ,Subject to disposal process,FH,,2493,,534998,180223,,,,,,,,,,,,,,
20,Hackney,23,"Land off Kingsland High Street, Dalston",Dalston Western Curve,E8  2JS,,,under contract,Yes,Land & buildings ,Subject to disposal process,FH,,2432,,533504,184917,,,,,,,,,,,,,,
21,Islington,24,ANGEL,"Islington High Street, London",N1 9LQ,,,London Underground Limited Station,Yes,Land & buildings ,Operational asset,LH,,,,531483,183218,,,,,,,,,,,,,,
22,Barnet,24,"Land adj Great North Road, East Finchley",East Finchley sub station site,N2 0NL,,,Sold subject to contract,Yes,Land & buildings ,Subject to disposal process,FH,,1875,,527351,189045,,,,,,,,,,,,,,
23,Tower Hamlets,25,Land at Fleet St Hill,Fleet St Hill,E2 6ES,,,under contract,Yes,Land & buildings ,Subject to disposal process,FH,,3603,,534070,182219,,,,,,,,,,,,,,
24,Hackney,26,"Land at Wick Road, Hackney Wick",Hackney Wick,E9 5SX,,,"vacant and surplus, held in case of operational need",No,Land only,Limited marketability,FH,,4902,,536460,184760,,,,,,,,,,,,,,
25,Islington,27,ARCHWAY,"Highgate Hill, London",N19 5RQ,,,London Underground Limited Station,Yes,Land & buildings ,Operational asset,FH,,,,529356,186827,,,,,,,,,,,,,,
26,Croydon,28,ARENA - TRAM,"Macclesfield Road, Woodside",CR0 7TT,,,London Bus Services Limited Tram Stop,Yes,Land & buildings ,Operational asset,FH,,,,535187,167622,,,,,,,,,,,,,,
27,Enfield,29,ARNOS GROVE,"Bowes Road, London",N11 1AN,,,London Underground Limited Station,Yes,Land & buildings ,Operational asset,FH,,,,529322,192491,,,,,,,,,,,,,,
28,Enfield,30,ARNOS GROVE SIDINGS,"Highview Gardens, London",N11 1AY,,,London Underground Limited Depot/Sidings,Yes,Land & buildings ,Operational asset,FH,,,,529325,192164,,,,,,,,,,,,,,
29,Islington,31,ARSENAL,"Gillespie Road, London",N5 1LP,,,London Underground Limited Station,Yes,Land & buildings ,Operational asset,FH,,,,531410,186109,,,,,,,,,,,,,,
30,Bromley,35,AVENUE ROAD - TRAM,"Avenue Road,  Bromley",BR3 4NF,,,London Bus Services Limited Tram Stop,Yes,Land & buildings ,Operational asset,OTH,,,,535745,169320,,,,,,,,,,,,,,
31,City of Westminster,37,BAKER STREET,"Marylebone Road, London",NW1 5RU,,,London Underground Limited Station,Yes,Land & buildings ,Operational asset,FH,,,,527965,182078,,,,,,,,,,,,,,
32,Wandsworth,38,BALHAM,"Balham High Street, London",SW12 8JA,,,London Underground Limited Station,Yes,Land & buildings ,Operational asset,FH,,,,528445,173219,,,,,,,,,,,,,,
33,City of London,39,BANK,"Mansion House Street, London",EC2R 8BD,,,London Underground Limited Station,Yes,Land & buildings ,Operational asset,OTH,,,,532709,181114,,,,,,,,,,,,,,
34,Southwark,40,BANKSIDE PIER,"Bankside, London",SE1 9DT,,,London River Services Limited Thames Pier,Yes,Land & buildings ,Operational asset,LH,,,,532176,180584,,,,,,,,,,,,,,
35,City of London,42,BARBICAN,"Aldersgate Street, London",EC1A 4JA,,,London Underground Limited Station,Yes,Land & buildings ,Operational asset,FH,,,,532079,181859,,,,,,,,,,,,,,
36,Barking and Dagenham,43,BARKING,"Station Parade, Barking",IG11 8TU,,,London Underground Limited Station,Yes,Land & buildings ,Operational asset,OTH,,,,544405,184343,,,,,,,,,,,,,,
37,Redbridge,48,BARKINGSIDE,"Station Road, Barkingside",IG6 1NB,,,London Underground Limited Station,Yes,Land & buildings ,Operational asset,FH,,,,544788,189510,,,,,,,,,,,,,,
38,Barnet,54,BARNET,"Wellhouse Lane, Barnet",EN5 3DL,,,London Bus Services Limited Bus Premises,Yes,Land & buildings ,Operational asset,FH,,,,523618,196282,,,,,,,,,,,,,,
39,Hammersmith and Fulham,57,BARONS COURT,"Palliser Road, London",W14 9EB,,,London Underground Limited Station,Yes,Land & buildings ,Operational asset,FH,,,,524121,178322,,,,,,,,,,,,,,
40,Greenwich,58,BARRIER GARDENS PIER,"Unity Way, London",SE18 5NR,,,London River Services Limited Thames Pier,Yes,Land & buildings ,Operational asset,OTH,,,,541838,179394,,,,,,,,,,,,,,
41,City of Westminster,64,BAYSWATER,"Queensway, London",W2 4QH,,,London Underground Limited Station,Yes,Land & buildings ,Operational asset,FH,,,,525835,180820,,,,,,,,,,,,,,
42,Bromley,68,BECKENHAM JUNCTION - TRAM,"Rectory Road, Beckenham",BR3 1AZ,,,London Bus Services Limited Tram Stop,Yes,Land & buildings ,Operational asset,OTH,,,,537353,169817,,,,,,,,,,,,,,
43,Bromley,69,BECKENHAM ROAD - TRAM,"Beckenham Road, Beckenham",BR3 1EP,,,London Bus Services Limited Tram Stop,Yes,Land & buildings ,Operational asset,OTH,,,,536195,169661,,,,,,,,,,,,,,
44,Newham,70,BECKTON - DLR,"Woolwich Manor Way, London",E6 5NT,,,Docklands Light Railway Limited Station,Yes,Land & buildings ,Operational asset,FH,,,,543165,181514,,,,,,,,,,,,,,
45,Newham,71,BECKTON PARK - DLR,"Woolwich Manor Way, London",E6 6NN,,,Docklands Light Railway Limited Station,Yes,Land & buildings ,Operational asset,LH,,,,542705,180873,,,,,,,,,,,,,,
46,Barking and Dagenham,72,BECONTREE,"Gale Street, Dagenham",RM9 4TP,,,London Underground Limited Station,Yes,Land & buildings ,Operational asset,FH,,,,547630,184529,,,,,,,,,,,,,,
47,Barking and Dagenham,73,BECONTREE BUS STATION,"Wood Lane, Dagenham",RM10 7DS,,,London Bus Services Limited Bus Premises,Yes,Land & buildings ,Operational asset,LH,,,,549200,186869,,,,,,,,,,,,,,
48,Sutton,74,BEDDINGTON LANE - TRAM,"Beddington Lane, Mitcham",CR0 4TD,,,London Bus Services Limited Tram Stop,Yes,Land & buildings ,Operational asset,FH,,,,529321,167234,,,,,,,,,,,,,,
49,Merton,75,BELGRAVE WALK - TRAM,"Belgrave Walk, Mitcham",CR4 3QE,,,London Bus Services Limited Tram Stop,Yes,Land & buildings ,Operational asset,FH,,,,526821,168443,,,,,,,,,,,,,,
50,Camden,81,BELSIZE PARK,"Haverstock Hill, London",NW3 2AL,,,London Underground Limited Station,Yes,Land & buildings ,Operational asset,FH,,,,527380,185108,,,,,,,,,,,,,,
51,Southwark,84,BERMONDSEY,"Jamaica Road, London",SE16 4RT,,,London Underground Limited Station,Yes,Land & buildings ,Operational asset,FH,,,,534507,179453,,,,,,,,,,,,,,
52,Tower Hamlets,87,BETHNAL GREEN,"Cambridge Heath Road, London",E2 0ET,,,London Underground Limited Station,Yes,Land & buildings ,Operational asset,OTH,,,,534991,182720,,,,,,,,,,,,,,
53,City of London,100,BLACKFRIARS,"New Bridge Street, London",EC4V 4DU,,,London Underground Limited Station,Yes,Land & buildings ,Operational asset,FH,,,,531695,180886,,,,,,,,,,,,,,
54,City of London,102,BLACKFRIARS MILLENIUM PIER,"Bazalgette Walk, London",EC4V 3QR,,,London River Services Limited Thames Pier,Yes,Land & buildings ,Operational asset,OTH,,,,531516,180795,,,,,,,,,,,,,,
55,Croydon,104,BLACKHORSE LANE - TRAM,"Blackhorse Lane, Croydon",CR0 6NL,,,London Bus Services Limited Tram Stop,Yes,Land & buildings ,Operational asset,OTH,,,,534375,166865,,,,,,,,,,,,,,
56,Waltham Forest,105,BLACKHORSE ROAD,"Blackhorse Road, London",E17 6ND,,,London Underground Limited Station,Yes,Land & buildings ,Operational asset,FH,,,,535814,189391,,,,,,,,,,,,,,
57,Waltham Forest,106,Blackhorse Road - Overground,"Blackhorse Road, London",E17 6ND,,,London Overground Limited Station,Yes,Land & buildings ,Operational asset,OTH,,,,535796,189387,,,,,,,,,,,,,,
58,Tower Hamlets,107,BLACKWALL - DLR,"Aspen Way, London",E14 9QE,,,Docklands Light Railway Limited Station,Yes,Land & buildings ,Operational asset,OTH,,,,538398,180664,,,,,,,,,,,,,,
59,City of Westminster,109,BOND STREET,"Oxford Street, London",W1K 5HJ,,,London Underground Limited Station,Yes,Land & buildings ,Operational asset,FH,,,,528516,181062,,,,,,,,,,,,,,
60,Southwark,111,BOROUGH,"Borough High Street, London",SE1 1JX,,,London Underground Limited Station,Yes,Land & buildings ,Operational asset,FH,,,,532412,179759,,,,,,,,,,,,,,
61,Hounslow,113,BOSTON MANOR,"Boston Manor Road, Brentford",TW8 9LQ,,,London Underground Limited Station,Yes,Land & buildings ,Operational asset,FH,,,,516391,178755,,,,,,,,,,,,,,
62,Haringey,114,BOUNDS GREEN,"Bounds Green Road, London",N11 2EU,,,London Underground Limited Station,Yes,Land & buildings ,Operational asset,FH,,,,529992,191479,,,,,,,,,,,,,,
63,Tower Hamlets,116,BOW CHURCH - DLR,"Bow Road, London",E3 3EE,,,Docklands Light Railway Limited Station,Yes,Land & buildings ,Operational asset,FH,,,,537393,182829,,,,,,,,,,,,,,
64,Tower Hamlets,119,BOW ROAD,"Bow Road, London",E3 4DH,,,London Underground Limited Station,Yes,Land & buildings ,Operational asset,FH,,,,537115,182733,,,,,,,,,,,,,,
65,Barnet,123,BRENT CROSS,"Highfield Avenue, London",NW11 9UA,,,London Underground Limited Station,Yes,Land & buildings ,Operational asset,FH,,,,523896,187956,,,,,,,,,,,,,,
66,Barnet,124,BRENT CROSS BUS STATION,"Brent Cross Shopping Centre, Prince Charles Drive, London",NW4 3RJ,,,London Bus Services Limited Bus Premises,Yes,Land & buildings ,Operational asset,LH,,,,523231,187814,,,,,,,,,,,,,,
67,Camden,130,BRITISH MUSEUM (DISUSED),"High Holborn, London",WC2B 6AF,,,London Underground Limited Disused Station,Yes,Land & buildings ,Operational asset,OTH,,,,530385,181514,,,,,,,,,,,,,,
68,Lambeth,131,BRIXTON,"Brixton Road, London",SW9 8HW,,,London Underground Limited Station,Yes,Land & buildings ,Operational asset,FH,,,,531070,175428,,,,,,,,,,,,,,
69,Tower Hamlets,137,BROMLEY BY BOW,"Blackwall Tunnel Northern Approach, London",E3 3JJ,,,London Underground Limited Station,Yes,Land & buildings ,Operational asset,FH,,,,538034,182532,,,,,,,,,,,,,,
70,Bromley,139,BROMLEY NORTH,"Northside Road, Bromley",BR1 3LP,,,London Bus Services Limited Bus Premises,Yes,Land & buildings ,Operational asset,LH,,,,540412,169757,,,,,,,,,,,,,,
71,Kensington and Chelsea,143,BROMPTON ROAD (DISUSED),"Brompton Road, London",SW7 2RW,,,London Underground Limited Disused Station,Yes,Land & buildings ,Operational asset,OTH,,,,527215,179175,,,,,,,,,,,,,,
72,Brent,144,Brondesbury - Overground,"Kilburn High Road, London ",NW6 7QB,,,London Overground Limited Station,Yes,Land & buildings ,Operational asset,OTH,,,,524760,184467,,,,,,,,,,,,,,
73,Brent,145,Brondesbury Park - Overground,"Brondesbury Park, London",NW6 6RP,,,London Overground Limited Station,Yes,Land & buildings ,Operational asset,OTH,,,,524227,183953,,,,,,,,,,,,,,
74,Epping Forest,149,BUCKHURST HILL,"Victoria Road, Buckhurst Hill",IG9 5ER,,,London Underground Limited Station,Yes,Land & buildings ,Operational asset,FH,,,,541768,193957,,,,,,,,,,,,,,
75,Barnet,150,BULL & BUSH (DISUSED),"Hampstead Way, London",NW11 7JA,,,London Underground Limited Disused Station,Yes,Land & buildings ,Operational asset,OTH,,,,526076,187134,,,,,,,,,,,,,,
76,Barnet,152,BURNT OAK,"Watling Avenue, Edgware, Middlesex",HA8 0LA,,,London Underground Limited Station,Yes,Land & buildings ,Operational asset,FH,,,,520312,190749,,,,,,,,,,,,,,
77,Kensington and Chelsea,157,CADOGAN PIER,"Chelsea Embankment, London",SW3 5HJ,,,London River Services Limited Thames Pier,Yes,Land & buildings ,Operational asset,OTH,,,,527418,177586,,,,,,,,,,,,,,
78,Islington,158,CALEDONIAN RD,"Caledonian Road, London",N7 9BA,,,London Underground Limited Station,Yes,Land & buildings ,Operational asset,FH,,,,530569,184966,,,,,,,,,,,,,,
79,Islington,159,Caledonian Road & Barnsbury - Overground,"Roman Way, London",N7 8XH,,,London Overground Limited Station,Yes,Land & buildings ,Operational asset,OTH,,,,530765,184374,,,,,,,,,,,,,,
80,Camden,162,Camden Road - Overground,"Camden Road, London",NW1 9LS,,,London Overground Limited Station,Yes,Land & buildings ,Operational asset,OTH,,,,529171,184178,,,,,,,,,,,,,,
81,Camden,163,CAMDEN TOWN,"Kentish Town Road, London",NW1 8NH,,,London Underground Limited Station,Yes,Land & buildings ,Operational asset,FH,,,,528902,183920,,,,,,,,,,,,,,
82,Southwark,165,CANADA WATER,"Deal Porter Way, Surrey Quays, London",SE16 7AJ,,,London Underground Limited Station,Yes,Land & buildings ,Operational asset,FH,,,,535475,179472,,,,,,,,,,,,,,
83,Southwark,166,CANADA WATER BUS STATION,"Surrey Quays Road, London",SE16 7AJ,,,London Bus Services Limited Bus Premises,Yes,Land & buildings ,Operational asset,LH,,,,535453,179489,,,,,,,,,,,,,,
84,Tower Hamlets,167,CANARY WHARF - DLR,"The South Colonade, London",E14 5EA,,,Docklands Light Railway Limited Station,Yes,Land & buildings ,Operational asset,LH,,,,537450,180322,,,,,,,,,,,,,,
85,Tower Hamlets,168,CANARY WHARF,"Heron Quays Road, Canary Wharf, London",E14 5AJ,,,London Underground Limited Station,Yes,Land & buildings ,Operational asset,FH,,,,537559,180158,,,,,,,,,,,,,,
86,Tower Hamlets,169,CANARY WHARF PIER,"Westferry Circus, London",E14 8RR,,,London River Services Limited Thames Pier,Yes,Land & buildings ,Operational asset,OTH,,,,536911,180319,,,,,,,,,,,,,,
87,Newham,170,CANNING TOWN - DLR,"Silvertown Way, London",E16 1DN,,,Docklands Light Railway Limited Station,Yes,Land & buildings ,Operational asset,OTH,,,,539443,181354,,,,,,,,,,,,,,
88,Newham,172,CANNING TOWN BUS STATION,"Silvertown Way, London",E16 1DN,,,London Bus Services Limited Bus Premises,Yes,Land & buildings ,Operational asset,OTH,,,,539467,181395,,,,,,,,,,,,,,
89,City of London,173,CANNON STREET,"Cannon Street, London",EC4N 6AP,,,London Underground Limited Station,Yes,Land & buildings ,Operational asset,FH,,,,532591,180903,,,,,,,,,,,,,,
90,Islington,175,Canonbury - Overground,"Wallace Road, London",N1 2PG,,,London Overground Limited Station,Yes,Land & buildings ,Operational asset,OTH,,,,532384,185035,,,,,,,,,,,,,,
91,Harrow,176,CANONS PARK,"Whitchurch Lane, Edgware, Middlesex",HA8 6QU,,,London Underground Limited Station,Yes,Land & buildings ,Operational asset,FH,,,,518190,191264,,,,,,,,,,,,,,
92,Three Rivers,177,Carpenders Park - Overground,"Station Appoach, Prestwick Road, Watford",WD19 7DT,,,London Overground Limited Station,Yes,Land & buildings ,Operational asset,OTH,,,,511833,193398,,,,,,,,,,,,,,
93,Croydon,187,CENTRALE - TRAM,"Tamworth Road, Croydon",CR0 1XT,,,London Bus Services Limited Tram Stop,Yes,Land & buildings ,Operational asset,OTH,,,,532062,165783,,,,,,,,,,,,,,
94,Chiltern,191,CHALFONT & LATIMER,"Station Approach, Little Chalfont, Amersham",HP7 9PR,,,London Underground Limited Station,Yes,Land & buildings ,Operational asset,FH,,,,499649,197569,,,,,,,,,,,,,,
95,Camden,193,CHALK FARM,"Adelaide Road, London",NW3 2BP,,,London Underground Limited Station,Yes,Land & buildings ,Operational asset,FH,,,,528126,184421,,,,,,,,,,,,,,
96,City of London,194,CHANCERY LANE,"High Holborn, London",WC1V 7PX,,,London Underground Limited Station,Yes,Land & buildings ,Operational asset,OTH,,,,531116,181609,,,,,,,,,,,,,,
97,City of Westminster,195,CHARING CROSS,"Trafalgar Square, London",WC2R 0QE,,,London Underground Limited Station,Yes,Land & buildings ,Operational asset,OTH,,,,530234,180526,,,,,,,,,,,,,,
98,Hammersmith and Fulham,202,CHELSEA HARBOUR PIER,"Harbour Avenue, London",SW10 0XD,,,London River Services Limited Thames Pier,Yes,Land & buildings ,Operational asset,OTH,,,,526507,176582,,,,,,,,,,,,,,
99,Bromley,204,CHELSFIELD,"Cudham Lane, Orpington",BR6 6BN,,,London Bus Services Limited Bus Premises,Yes,Land & buildings ,Operational asset,OTH,,,,545519,163287,,,,,,,,,,,,,,
100,Chiltern,207,CHESHAM,"Station Road, Chesham",HP5 1DH,,,London Underground Limited Station,Yes,Land & buildings ,Operational asset,FH,,,,496066,201616,,,,,,,,,,,,,,
101,Epping Forest,211,CHIGWELL,"Station Road, Chigwell, Essex",IG7 6NT,,,London Underground Limited Station,Yes,Land & buildings ,Operational asset,FH,,,,543718,193050,,,,,,,,,,,,,,
102,Epping Forest,212,CHINGFORD,"Sewardstone Road, Chingford, London",E4 7SA,,,London Bus Services Limited Bus Premises,Yes,Land & buildings ,Operational asset,OTH,,,,537761,196071,,,,,,,,,,,,,,
103,Waltham Forest,214,CHINGFORD BUS STATION,"Station Road, Chingford, London",E4 6AG,,,London Bus Services Limited Bus Premises,Yes,Land & buildings ,Operational asset,FH,,,,539231,194667,,,,,,,,,,,,,,
104,Ealing,221,CHISWICK PARK,"Bollo Lane, London",W4 5ED,,,London Underground Limited Station,Yes,Land & buildings ,Operational asset,FH,,,,520352,178692,,,,,,,,,,,,,,
105,Three Rivers,223,CHORLEYWOOD,"Station Approach, Chorleywood, Rickmansworth",WD3 5ND,,,London Underground Limited Station,Yes,Land & buildings ,Operational asset,FH,,,,502596,196092,,,,,,,,,,,,,,
106,Croydon,224,CHURCH STREET - TRAM,"Church Street, Croydon",CR0 1RB,,,London Bus Services Limited Tram Stop,Yes,Land & buildings ,Operational asset,OTH,,,,532037,165559,,,,,,,,,,,,,,
107,Islington,225,CITY ROAD (DISUSED),"City Road, London",EC1V 2PW,,,London Underground Limited Disused Station,Yes,Land & buildings ,Operational asset,OTH,,,,532049,182902,,,,,,,,,,,,,,
108,Lambeth,229,CLAPHAM COMMON,"The Pavement, London",SW4 7AJ,,,London Underground Limited Station,Yes,Land & buildings ,Operational asset,FH,,,,529428,175291,,,,,,,,,,,,,,
109,Lambeth,232,CLAPHAM NORTH,"Clapham High Street, London",SW4 7TS,,,London Underground Limited Station,Yes,Land & buildings ,Operational asset,FH,,,,530029,175653,,,,,,,,,,,,,,
110,Wandsworth,234,CLAPHAM SOUTH,"Balham Hill, London",SW12 9DU,,,London Underground Limited Station,Yes,Land & buildings ,Operational asset,FH,,,,528782,174259,,,,,,,,,,,,,,
111,Waltham Forest,235,CLAPTON,"Leabridge Road, London",E10 7QL,,,London Bus Services Limited Bus Premises,Yes,Land & buildings ,Operational asset,OTH,,,,535592,186714,,,,,,,,,,,,,,
112,Enfield,241,COCKFOSTERS,"Bramley Road, London",EN4 0DZ,,,London Underground Limited Station,Yes,Land & buildings ,Operational asset,FH,,,,528108,196393,,,,,,,,,,,,,,
113,Enfield,242,COCKFOSTERS DEPOT,"Bramley Road, London",EN4 0AX,,,London Underground Limited Depot/Sidings,Yes,Land & buildings ,Operational asset,FH,,,,528782,196112,,,,,,,,,,,,,,
114,Barnet,243,COLINDALE,"Colindale Avenue, London",NW9 5HR,,,London Underground Limited Station,Yes,Land & buildings ,Operational asset,FH,,,,521305,189950,,,,,,,,,,,,,,
115,Merton,246,COLLIERS WOOD,"Colliers Wood High Street, London",SW19 2HR,,,London Underground Limited Station,Yes,Land & buildings ,Operational asset,FH,,,,526813,170368,,,,,,,,,,,,,,
116,Croydon,248,COOMBE LANE - TRAM,"Coombe Lane, Croydon",CR0 5HQ,,,London Bus Services Limited Tram Stop,Yes,Land & buildings ,Operational asset,OTH,,,,535160,164090,,,,,,,,,,,,,,
117,City of Westminster,250,COVENT GARDEN,"39 Wellington Street, London",WC2E 8NS,,,London Underground Limited Station,Yes,Land & buildings ,Operational asset,FH,,,,530265,181007,,,,,,,,,,,,,,
118,Tower Hamlets,255,CROSSHARBOUR - DLR,"East Ferry Road, London",E14 3LH,,,Docklands Light Railway Limited Station,Yes,Land & buildings ,Operational asset,LH,,,,537927,179309,,,,,,,,,,,,,,
119,Islington,256,Crouch Hill - Overground,"Crouch Hill, London",N4 4BA,,,London Overground Limited Station,Yes,Land & buildings ,Operational asset,OTH,,,,530590,187513,,,,,,,,,,,,,,
120,Three Rivers,257,CROXLEY,"Watford Road, Rickmansworth",WD3 3DY,,,London Underground Limited Station,Yes,Land & buildings ,Operational asset,FH,,,,507915,195405,,,,,,,,,,,,,,
121,Bromley,263,CRYSTAL PALACE BUS STATION,"Crystal Palace Parade, London",SE19 1SZ,,,London Bus Services Limited Bus Premises,Yes,Land & buildings ,Operational asset,LH,,,,533760,170842,,,,,,,,,,,,,,
122,Newham,265,CUSTOM HOUSE - DLR,"Victoria Dock Road, London",E16 1DR,,,Docklands Light Railway Limited Station,Yes,Land & buildings ,Operational asset,FH,,,,540731,180925,,,,,,,,,,,,,,
123,Greenwich,267,CUTTY SARK - DLR,"Greenwich Church Road, London",SE10 9BL,,,Docklands Light Railway Limited Station,Yes,Land & buildings ,Operational asset,OTH,,,,538206,177733,,,,,,,,,,,,,,
124,Newham,269,CYPRUS - DLR,"Royal Albert Way, London",E6 6NN,,,Docklands Light Railway Limited Station,Yes,Land & buildings ,Operational asset,FH,,,,543331,180860,,,,,,,,,,,,,,
125,Barking and Dagenham,272,DAGENHAM EAST,"North Rainham Road, Dagenham",RM10 8AA,,,London Underground Limited Station,Yes,Land & buildings ,Operational asset,FH,,,,550284,185033,,,,,,,,,,,,,,
126,Barking and Dagenham,274,DAGENHAM HEATHWAY,"Heathway, Dagenham",RM9 5AN,,,London Underground Limited Station,Yes,Land & buildings ,Operational asset,FH,,,,549031,184719,,,,,,,,,,,,,,
127,Hackney,276,Dalston Kingsland - Overground,"Kingsland High Street, London",E8 2JS,,,London Overground Limited Station,Yes,Land & buildings ,Operational asset,OTH,,,,533528,185027,,,,,,,,,,,,,,
128,Epping Forest,279,DEBDEN,"Chigwell Lane, Loughton, Essex",IG10 3TG,,,London Underground Limited Station,Yes,Land & buildings ,Operational asset,FH,,,,544275,196133,,,,,,,,,,,,,,
129,Greenwich,284,DEPTFORD BRIDGE - DLR,"Deptford Bridge, London",SE10 8ED,,,Docklands Light Railway Limited Station,Yes,Land & buildings ,Operational asset,FH,,,,537438,176892,,,,,,,,,,,,,,
130,Tower Hamlets,287,DEVONS ROAD - DLR,"Devons Road, London",E3 3PJ,,,Docklands Light Railway Limited Station,Yes,Land & buildings ,Operational asset,FH,,,,537639,182257,,,,,,,,,,,,,,
131,Brent,290,DOLLIS HILL,"Hamilton Road, London",NW2 5NB,,,London Underground Limited Station,Yes,Land & buildings ,Operational asset,FH,,,,522207,185145,,,,,,,,,,,,,,
132,City of Westminster,291,DOVER STREET (DISUSED),"Dover Street, London",W1S 4LB,,,London Underground Limited Disused Station,Yes,Land & buildings ,Operational asset,FH,,,,529077,180418,,,,,,,,,,,,,,
133,City of Westminster,293,DOWN STREET (DISUSED),"Down Street, London",W1J 7AS,,,London Underground Limited Disused Station,Yes,Land & buildings ,Operational asset,FH,,,,528634,180039,,,,,,,,,,,,,,
134,Merton,297,DUNDONALD ROAD - TRAM,"Dundonald Road, London",SW19 3RZ,,,London Bus Services Limited Tram Stop,Yes,Land & buildings ,Operational asset,FH,,,,524727,170256,,,,,,,,,,,,,,
135,Ealing,299,EALING BROADWAY,"The Broadway, London",W5 2NU,,,London Underground Limited Station,Yes,Land & buildings ,Operational asset,FH,,,,517956,180929,,,,,,,,,,,,,,
136,Ealing,302,EALING COMMON,"Uxbridge Road, London",W5 3NU,,,London Underground Limited Station,Yes,Land & buildings ,Operational asset,FH,,,,518887,180418,,,,,,,,,,,,,,
137,Ealing,303,EALING COMMON DEPOT,"Granville Gardens, London",W5 3PA,,,London Underground Limited Depot/Sidings,Yes,Land & buildings ,Operational asset,FH,,,,519168,179962,,,,,,,,,,,,,,
138,Kensington and Chelsea,306,EARLS COURT,"Earl'S Court Road, London",SW7 2SX,,,London Underground Limited Station,Yes,Land & buildings ,Operational asset,FH,,,,525509,178539,,,,,,,,,,,,,,
139,Hammersmith and Fulham,309,EAST ACTON,"Erconwald Street, London",W12 0BP,,,London Underground Limited Station,Yes,Land & buildings ,Operational asset,FH,,,,521697,181203,,,,,,,,,,,,,,
140,Croydon,310,EAST CROYDON - TRAM,"Addiscombe Road, Croydon",CR0 1LF,,,London Bus Services Limited Tram Stop,Yes,Land & buildings ,Operational asset,OTH,,,,532850,165703,,,,,,,,,,,,,,
141,Croydon,311,EAST CROYDON BUS STATION,"Addiscombe Road, Croydon",CR9 5AF,,,London Bus Services Limited Bus Premises,Yes,Land & buildings ,Operational asset,LH,,,,532919,165713,,,,,,,,,,,,,,
142,Barnet,314,EAST FINCHLEY,"High Road, London",N2 0GA,,,London Underground Limited Station,Yes,Land & buildings ,Operational asset,FH,,,,527242,189204,,,,,,,,,,,,,,
143,Newham,316,EAST HAM,"High Street North, London",E6 2JA,,,London Underground Limited Station,Yes,Land & buildings ,Operational asset,FH,,,,542369,184227,,,,,,,,,,,,,,
144,Tower Hamlets,319,EAST INDIA - DLR,"Blackwall Way, London",E14 2DU,,,Docklands Light Railway Limited Station,Yes,Land & buildings ,Operational asset,FH,,,,538732,180831,,,,,,,,,,,,,,
145,Wandsworth,321,EAST PUTNEY,"Upper Richmond Road, London",SW15 2SZ,,,London Underground Limited Station,Yes,Land & buildings ,Operational asset,FH,,,,524387,174840,,,,,,,,,,,,,,
146,Hillingdon,323,EASTCOTE,"Field End Road, Ruislip, Middlesex",HA4 9NJ,,,London Underground Limited Station,Yes,Land & buildings ,Operational asset,FH,,,,511191,187627,,,,,,,,,,,,,,
147,Barnet,326,EDGWARE,"Station Road, Edgware, Middlesex",HA8 7AW,,,London Underground Limited Station,Yes,Land & buildings ,Operational asset,FH,,,,519537,191948,,,,,,,,,,,,,,
148,Barnet,327,EDGWARE BUS STATION,"Station Road, Edgware, Middlesex",HA8 7AW,,,London Bus Services Limited Bus Premises,Yes,Land & buildings ,Operational asset,FH,,,,519559,191863,,,,,,,,,,,,,,
149,City of Westminster,329,EDGWARE ROAD (BAKERLOO),"Edgware Road, London",W2 1DY,,,London Underground Limited Station,Yes,Land & buildings ,Operational asset,FH,,,,527055,181735,,,,,,,,,,,,,,
150,City of Westminster,330,"EDGWARE ROAD (CIRCLE, DISTRICT, H & C)","Chapel Street, London",NW1 5BP,,,London Underground Limited Station,Yes,Land & buildings ,Operational asset,FH,,,,527227,181710,,,,,,,,,,,,,,
151,City of Westminster,331,EDGWARE ROAD SIDINGS,"Chapel Street, London",NW1 5RJ,,,London Underground Limited Depot/Sidings,Yes,Land & buildings ,Operational asset,FH,,,,527289,181720,,,,,,,,,,,,,,
152,Barnet,332,EDGWARE SIDINGS,"Station Road, Edgware, Middlesex",HA8 9JQ,,,London Underground Limited Depot/Sidings,Yes,Land & buildings ,Operational asset,FH,,,,519841,191745,,,,,,,,,,,,,,
153,Southwark,339,ELEPHANT& CASTLE,"London Road, London",SE1 6LW,,,London Underground Limited Station,Yes,Land & buildings ,Operational asset,FH,,,,531940,179144,,,,,,,,,,,,,,
154,Havering,340,ELM PARK,"The Broadway, Hornchurch, Essex",RM12 4RW,,,London Underground Limited Station,Yes,Land & buildings ,Operational asset,FH,,,,552574,185734,,,,,,,,,,,,,,
155,Bromley,341,ELMERS END - TRAM,"Elmers End Road, Beckenham",BR3 4EJ,,,London Bus Services Limited Tram Stop,Yes,Land & buildings ,Operational asset,OTH,,,,535772,168372,,,,,,,,,,,,,,
156,Greenwich,345,ELTHAM BUS STATION,"Well Hall Road, London",SE9 6SL,,,London Bus Services Limited Bus Premises,Yes,Land & buildings ,Operational asset,FH,,,,542670,174914,,,,,,,,,,,,,,
157,Lewisham,348,ELVERSON ROAD - DLR,"Elverson Road, London",SE8 4JN,,,Docklands Light Railway Limited Station,Yes,Land & buildings ,Operational asset,FH,,,,537877,176280,,,,,,,,,,,,,,
158,City of Westminster,349,EMBANKMENT,"Villiers Street, London",WC2N 6NS,,,London Underground Limited Station,Yes,Land & buildings ,Operational asset,OTH,,,,530406,180380,,,,,,,,,,,,,,
159,City of Westminster,350,EMBANKMENT PIER,"Victoria Embankment, London",WC2N 6NU,,,London River Services Limited Thames Pier,Yes,Land & buildings ,Operational asset,LH,,,,530484,180376,,,,,,,,,,,,,,
160,Enfield,352,ENFIELD,"Church Street, Enfield",EN2 6PH,,,London Bus Services Limited Bus Premises,Yes,Land & buildings ,Operational asset,LH,,,,532485,196630,,,,,,,,,,,,,,
161,Enfield,353,ENFIELD CHASE,"Windmill Hill, Enfield",EN2 7AA,,,London Bus Services Limited Bus Premises,Yes,Land & buildings ,Operational asset,OTH,,,,532154,196694,,,,,,,,,,,,,,
162,Epping Forest,358,EPPING,"Station Road, Epping, Essex",CM16 4HW,,,London Underground Limited Station,Yes,Land & buildings ,Operational asset,FH,,,,546197,201552,,,,,,,,,,,,,,
163,Camden,367,EUSTON,"Eversholt Street, London",NW1 2EF,,,London Underground Limited Station,Yes,Land & buildings ,Operational asset,OTH,,,,529587,182735,,,,,,,,,,,,,,
164,Camden,369,EUSTON BUS STATION,"Eversholt Street, London",NW1 2EF,,,London Bus Services Limited Bus Premises,Yes,Land & buildings ,Operational asset,LH,,,,529652,182607,,,,,,,,,,,,,,
165,Camden,371,EUSTON SQUARE,"Euston Road, Ealing",NW1 2DA,,,London Underground Limited Station,Yes,Land & buildings ,Operational asset,OTH,,,,529419,182393,,,,,,,,,,,,,,
166,Kingston upon Thames,376,FAIRFIELD BUS STATION,"Fairfield North, Kingston",KT1 2PW,,,London Bus Services Limited Bus Premises,Yes,Land & buildings ,Operational asset,FH,,,,518348,169290,,,,,,,,,,,,,,
167,Redbridge,377,FAIRLOP,"Forest Road, Ilford, Essex",IG6 3HD,,,London Underground Limited Station,Yes,Land & buildings ,Operational asset,FH,,,,544924,190615,,,,,,,,,,,,,,
168,Islington,380,FARRINGDON,"Cowcross Street, London",EC1M 6BY,,,London Underground Limited Station,Yes,Land & buildings ,Operational asset,FH,,,,531568,181879,,,,,,,,,,,,,,
169,Islington,381,FARRINGDON SIDINGS,"Cowcross Street, London",EC1M 6HA,,,London Underground Limited Depot/Sidings,Yes,Land & buildings ,Operational asset,FH,,,,531658,181784,,,,,,,,,,,,,,
170,Lambeth,386,FESTIVAL PIER,"Riverside Walk, London",SE1 8XZ,,,London River Services Limited Thames Pier,Yes,Land & buildings ,Operational asset,LH,,,,530725,180352,,,,,,,,,,,,,,
171,Croydon,387,FIELDWAY - TRAM,"Lodge Lane, Addington",CR0 0LH,,,London Bus Services Limited Tram Stop,Yes,Land & buildings ,Operational asset,OTH,,,,537682,163171,,,,,,,,,,,,,,
172,Barnet,388,FINCHLEY CENTRAL,"Regent’S Park Road, London",N3 2RY,,,London Underground Limited Station,Yes,Land & buildings ,Operational asset,FH,,,,525285,190680,,,,,,,,,,,,,,
173,Camden,391,FINCHLEY ROAD,"Finchley Road, London",NW3 6LP,,,London Underground Limited Station,Yes,Land & buildings ,Operational asset,FH,,,,526262,184706,,,,,,,,,,,,,,
174,Camden,392,Finchley Road & Frognal - Overground,"Finchley Road, London",NW3 6EP,,,London Overground Limited Station,Yes,Land & buildings ,Operational asset,OTH,,,,526063,185057,,,,,,,,,,,,,,
175,Islington,393,FINSBURY PARK,"Station Place, London",N4 2DH,,,London Underground Limited Station,Yes,Land & buildings ,Operational asset,OTH,,,,531341,186764,,,,,,,,,,,,,,
176,Islington,394,FINSBURY PARK BUS STATION,"Station Place, London",N4 3JU,,,London Bus Services Limited Bus Premises,Yes,Land & buildings ,Operational asset,LH,,,,531289,186887,,,,,,,,,,,,,,
177,Hammersmith and Fulham,401,FULHAM BROADWAY,"Fulham Broadway, London",SW6 1BY,,,London Underground Limited Station,Yes,Land & buildings ,Operational asset,FH,,,,525442,177283,,,,,,,,,,,,,,
178,Newham,406,GALLIONS REACH - DLR,"Atlantis Avenue, London",E6 7AB,,,Docklands Light Railway Limited Station,Yes,Land & buildings ,Operational asset,FH,,,,543872,180929,,,,,,,,,,,,,,
179,Redbridge,407,GANTS HILL,"Eastern Avenue, London",IG2 6NS,,,London Underground Limited Station,Yes,Land & buildings ,Operational asset,OTH,,,,543266,188432,,,,,,,,,,,,,,
180,Croydon,409,GEORGE STREET - TRAM,"George Street, Croydon",CR0 1LA,,,London Bus Services Limited Tram Stop,Yes,Land & buildings ,Operational asset,OTH,,,,532407,165587,,,,,,,,,,,,,,
181,Kensington and Chelsea,414,GLOUCESTER ROAD,"Gloucester Road, London",SW7 4SF,,,London Underground Limited Station,Yes,Land & buildings ,Operational asset,FH,,,,526235,178828,,,,,,,,,,,,,,
182,Barnet,415,GOLDERS GREEN,"North End Road, London",NW11 7RN,,,London Underground Limited Station,Yes,Land & buildings ,Operational asset,FH,,,,525257,187480,,,,,,,,,,,,,,
183,Barnet,416,GOLDERS GREEN DEPOT,"North End Road, London",NW11 7EF,,,London Underground Limited Depot/Sidings,Yes,Land & buildings ,Operational asset,FH,,,,525386,187547,,,,,,,,,,,,,,
184,Hammersmith and Fulham,418,GOLDHAWK ROAD,"Goldhawk Road, London",W12 8EG,,,London Underground Limited Station,Yes,Land & buildings ,Operational asset,FH,,,,523177,179611,,,,,,,,,,,,,,
185,Camden,419,GOODGE STREET,"Tottenham Court Road, London",W1T 2HE,,,London Underground Limited Station,Yes,Land & buildings ,Operational asset,FH,,,,529515,181824,,,,,,,,,,,,,,
186,Camden,423,Gospel Oak - Overground,Gordon House Road,NW5 1LT,,,London Overground Limited Station,Yes,Land & buildings ,Operational asset,OTH,,,,528277,185673,,,,,,,,,,,,,,
187,Epping Forest,424,GRANGE HILL,"Manor Road, London",IG7 4JU,,,London Underground Limited Station,Yes,Land & buildings ,Operational asset,FH,,,,544952,192582,,,,,,,,,,,,,,
188,Croydon,426,GRAVEL HILL - TRAM,"Gravel Hill, London",CR0 5BJ,,,London Bus Services Limited Tram Stop,Yes,Land & buildings ,Operational asset,OTH,,,,536375,163538,,,,,,,,,,,,,,
189,City of Westminster,429,GREAT PORTLAND STREET,"Great Portland Street, London",W1W 5QX,,,London Underground Limited Station,Yes,Land & buildings ,Operational asset,FH,,,,528861,182174,,,,,,,,,,,,,,
190,City of Westminster,430,GREEN PARK,"Piccadilly, London",W1J 8EU,,,London Underground Limited Station,Yes,Land & buildings ,Operational asset,LH,,,,528981,180300,,,,,,,,,,,,,,
191,Ealing,431,GREENFORD,"Oldfield Lane, Greenford",UB6 8PX,,,London Underground Limited Station,Yes,Land & buildings ,Operational asset,FH,,,,514769,183903,,,,,,,,,,,,,,
192,Southwark,435,GREENLAND DOCK PIER,"Rope Street, London",SE16 7SX,,,London River Services Limited Thames Pier,Yes,Land & buildings ,Operational asset,OTH,,,,536191,179074,,,,,,,,,,,,,,
193,Greenwich,436,GREENWICH - DLR,"Greenwich High Road, London",SE10 8JA,,,Docklands Light Railway Limited Station,Yes,Land & buildings ,Operational asset,OTH,,,,538052,177334,,,,,,,,,,,,,,
194,Greenwich,438,GREENWICH PIER,"King William Walk, London",SE10 9JF,,,London River Services Limited Thames Pier,Yes,Land & buildings ,Operational asset,OTH,,,,538302,177991,,,,,,,,,,,,,,
195,Hounslow,441,GUNNERSBURY,"Chiswick High Road, Chiswick",W4 4AN,,,London Underground Limited Station,Yes,Land & buildings ,Operational asset,LH,,,,519843,178401,,,,,,,,,,,,,,
196,Hackney,443,Hackney Central - Overground,"Mare Street, London",E8 1LL,,,London Overground Limited Station,Yes,Land & buildings ,Operational asset,OTH,,,,534837,184916,,,,,,,,,,,,,,
197,Hackney,447,Hackney Wick - Overground,"Wallis Road, London",E9 5LN,,,London Overground Limited Station,Yes,Land & buildings ,Operational asset,OTH,,,,537166,184589,,,,,,,,,,,,,,
198,Redbridge,449,HAINAULT,"New North Road, London",IG6 3BD,,,London Underground Limited Station,Yes,Land & buildings ,Operational asset,FH,,,,545050,191514,,,,,,,,,,,,,,
199,Redbridge,450,HAINAULT DEPOT,"Thurlow Gardens, London",IG7 5JW,,,London Underground Limited Depot/Sidings,Yes,Land & buildings ,Operational asset,FH,,,,545050,191938,,,,,,,,,,,,,,
200,Hammersmith and Fulham,453,HAMMERSMITH BUS STATION,"Butterwick, London",W6 9YA,,,London Bus Services Limited Bus Premises,Yes,Land & buildings ,Operational asset,FH,,,,523401,178508,,,,,,,,,,,,,,
201,Hammersmith and Fulham,454,HAMMERSMITH DEPOT,"Beadon Road, London",W6 7NL,,,London Underground Limited Depot/Sidings,Yes,Land & buildings ,Operational asset,FH,,,,523295,179057,,,,,,,,,,,,,,
202,Hammersmith and Fulham,455,HAMMERSMITH (DISTRICT),Hammersmith Broadway,W6 7AB,,,London Underground Limited Station,Yes,Land & buildings ,Operational asset,FH,,,,523504,178575,,,,,,,,,,,,,,
203,Hammersmith and Fulham,457,HAMMERSMITH (H&C),"Beadon Road, London",W6 7AE,,,London Underground Limited Station,Yes,Land & buildings ,Operational asset,FH,,,,523327,178674,,,,,,,,,,,,,,
204,Camden,460,HAMPSTEAD,"Hampstead High Street, London",NW3 1QG,,,London Underground Limited Station,Yes,Land & buildings ,Operational asset,FH,,,,526393,185780,,,,,,,,,,,,,,
205,Camden,461,Hampstead Heath - Overground,"South End Road, London",NW3 2QD,,,London Overground Limited Station,Yes,Land & buildings ,Operational asset,OTH,,,,527265,185636,,,,,,,,,,,,,,
206,Richmond upon Thames,465,HAMPTON COURT PIER,"Barge Walk, London",KT8 9AU,,,London River Services Limited Thames Pier,Yes,Land & buildings ,Operational asset,OTH,,,,515588,168399,,,,,,,,,,,,,,
207,Ealing,467,HANGER LANE,"Hanger Lane, London",W5 1DL,,,London Underground Limited Station,Yes,Land & buildings ,Operational asset,FH,,,,518506,182621,,,,,,,,,,,,,,
208,Brent,469,HARLESDEN,"Acton Lane, London",NW10 7AA,,,London Underground Limited Station,Yes,Land & buildings ,Operational asset,OTH,,,,520952,183367,,,,,,,,,,,,,,
209,Brent,470,Harlesden - Overground,"Acton Lane, London",NW10 7AA,,,London Overground Limited Station,Yes,Land & buildings ,Operational asset,OTH,,,,520952,183367,,,,,,,,,,,,,,
210,Havering,474,HAROLD WOOD,"Station Road, London",RM3 0BL,,,London Bus Services Limited Bus Premises,Yes,Land & buildings ,Operational asset,OTH,,,,554754,190604,,,,,,,,,,,,,,
211,Haringey,476,Harringay Green Lanes - Overground,"Green Lanes, London",N4 1DR,,,London Overground Limited Station,Yes,Land & buildings ,Operational asset,OTH,,,,531874,188183,,,,,,,,,,,,,,
212,Croydon,477,HARRINGTON ROAD - TRAM,"Love Lane, South Norwood",SE25 4NF,,,London Bus Services Limited Tram Stop,Yes,Land & buildings ,Operational asset,FH,,,,535016,168523,,,,,,,,,,,,,,
213,Harrow,480,HARROW BUS STATION,"College Road, Harrow",HA1 1BD,,,London Bus Services Limited Bus Premises,Yes,Land & buildings ,Operational asset,FH,,,,515273,188099,,,,,,,,,,,,,,
214,Harrow,481,HARROW ON THE HILL,"College Road, Harrow",HA1 1BB,,,London Underground Limited Station,Yes,Land & buildings ,Operational asset,FH,,,,515329,188035,,,,,,,,,,,,,,
215,Harrow,485,HARROW & WEALDSTONE,"George Gange Way, North Harrow",HA3 5BY,,,London Underground Limited Station,Yes,Land & buildings ,Operational asset,LH,,,,515420,189470,,,,,,,,,,,,,,
216,Harrow,486,Hatch End - Overground,"Uxbridge Road, Hatch End",HA5 4HU,,,London Overground Limited Station,Yes,Land & buildings ,Operational asset,OTH,,,,513054,191323,,,,,,,,,,,,,,
217,Hillingdon,487,HATTON CROSS,"Great South West Road, Hounslow",TW6 3RE,,,London Underground Limited Station,Yes,Land & buildings ,Operational asset,FH,,,,509614,175369,,,,,,,,,,,,,,
218,Harrow,494,Headstone Lane - Overground,"Headstone Lane, Harrow",HA3 5NS,,,London Overground Limited Station,Yes,Land & buildings ,Operational asset,OTH,,,,513869,190584,,,,,,,,,,,,,,
219,Hillingdon,496,HEATHROW BUS STATION,"Great South West Road, Hounslow",TW6 1SL,,,London Bus Services Limited Bus Premises,Yes,Land & buildings ,Operational asset,OTH,,,,507510,175820,,,,,,,,,,,,,,
220,Hillingdon,498,"HEATHROW AIRPORT TERMINAL 1, 2 & 3 ","Great South West Road, Hounslow",TW6 1SL,,,London Underground Limited Station,Yes,Land & buildings ,Operational asset,FH,,,,507587,175838,,,,,,,,,,,,,,
221,Hillingdon,499,HEATHROW TERMINAL 4,"Stratford Road, Heathrow",TW6 3XA,,,London Underground Limited Station,Yes,Land & buildings ,Operational asset,LH,,,,508060,174439,,,,,,,,,,,,,,
222,Hillingdon,500,HEATHROW TERMINAL 5,"Heathrow Airport, Heathrow",TW6 2GD,,,London Underground Limited Station,Yes,Land & buildings ,Operational asset,OTH,,,,505119,175820,,,,,,,,,,,,,,
223,Barnet,503,HENDON CENTRAL,"Central Circus, London",NW4 3AS,,,London Underground Limited Station,Yes,Land & buildings ,Operational asset,FH,,,,522975,188656,,,,,,,,,,,,,,
224,Tower Hamlets,506,HERON QUAYS - DLR,"East Ferry Road, London",E14 5EA,,,Docklands Light Railway Limited Station,Yes,Land & buildings ,Operational asset,LH,,,,537421,180122,,,,,,,,,,,,,,
225,Barnet,509,HIGH BARNET,"Barnet Hill, London",EN5 5RP,,,London Underground Limited Station,Yes,Land & buildings ,Operational asset,FH,,,,524989,196194,,,,,,,,,,,,,,
226,Barnet,510,HIGH BARNET SIDINGS,"Barnet Hill, London",EN5 5YS,,,London Underground Limited Depot/Sidings,Yes,Land & buildings ,Operational asset,FH,,,,525097,196172,,,,,,,,,,,,,,
227,Kensington and Chelsea,511,HIGH STREET KENSINGTON,"Kensington High Street, London",W8 5SF,,,London Underground Limited Station,Yes,Land & buildings ,Operational asset,FH,,,,525557,179527,,,,,,,,,,,,,,
228,Haringey,518,HIGHGATE,"Archway Road, London",N6 5AT,,,London Underground Limited Station,Yes,Land & buildings ,Operational asset,FH,,,,528523,188160,,,,,,,,,,,,,,
229,Haringey,519,HIGHGATE DEPOT,"Woodside Avenue, London",N6 4SX,,,London Underground Limited Depot/Sidings,Yes,Land & buildings ,Operational asset,FH,,,,527967,188660,,,,,,,,,,,,,,
230,Hillingdon,520,HILLINGDON,"Long Lane, Uxbridge",UB10 9NR,,,London Underground Limited Station,Yes,Land & buildings ,Operational asset,FH,,,,507567,185015,,,,,,,,,,,,,,
231,Camden,525,HOLBORN,"Kingsway, London",WC2B 6AF,,,London Underground Limited Station,Yes,Land & buildings ,Operational asset,FH,,,,530540,181518,,,,,,,,,,,,,,
232,Kensington and Chelsea,527,HOLLAND PARK,"Holland Park Avenue, London",W11 3RB,,,London Underground Limited Station,Yes,Land & buildings ,Operational asset,FH,,,,524621,180245,,,,,,,,,,,,,,
233,Islington,530,HOLLOWAY ROAD,"Holloway Road, London",N7 8HS,,,London Underground Limited Station,Yes,Land & buildings ,Operational asset,FH,,,,530930,185457,,,,,,,,,,,,,,
234,Hackney,531,Homerton - Overground,"Barnabas Road, London",E9 5SB,,,London Overground Limited Station,Yes,Land & buildings ,Operational asset,OTH,,,,535848,184939,,,,,,,,,,,,,,
235,Havering,534,HORNCHURCH,"Station Lane, London",RM12 6LS,,,London Underground Limited Station,Yes,Land & buildings ,Operational asset,FH,,,,553935,186243,,,,,,,,,,,,,,
236,Hounslow,541,HOUNSLOW BUS STATION,"Kingsley Road, Hounslow",TW3 1PA,,,London Bus Services Limited Bus Premises,Yes,Land & buildings ,Operational asset,FH,,,,514372,175959,,,,,,,,,,,,,,
237,Hounslow,542,HOUNSLOW CENTRAL,"Lampton Road, Hounslow",TW3 1JG,,,London Underground Limited Station,Yes,Land & buildings ,Operational asset,FH,,,,513526,175952,,,,,,,,,,,,,,
238,Hounslow,543,HOUNSLOW EAST,"Kingsley Road, Hounslow",TW3 4AB,,,London Underground Limited Station,Yes,Land & buildings ,Operational asset,FH,,,,514231,176200,,,,,,,,,,,,,,
239,Hounslow,545,HOUNSLOW TOWN (DISUSED),"Kingsley Road, Hounslow",TW3 1PA,,,London Underground Limited Disused Station,Yes,Land & buildings ,Operational asset,FH,,,,514360,175971,,,,,,,,,,,,,,
240,Hounslow,546,HOUNSLOW WEST,"Bath Road, Hounslow",TW3 3DH,,,London Underground Limited Station,Yes,Land & buildings ,Operational asset,FH,,,,512215,176140,,,,,,,,,,,,,,
241,City of Westminster,549,HYDE PARK CORNER,"Hyde Park Corner, London",SW1X 7LY,,,London Underground Limited Station,Yes,Land & buildings ,Operational asset,OTH,,,,528310,179828,,,,,,,,,,,,,,
242,Hillingdon,551,ICKENHAM,"Glebe Avenue, Ickenham",UB10 8PD,,,London Underground Limited Station,Yes,Land & buildings ,Operational asset,FH,,,,508095,185946,,,,,,,,,,,,,,
243,Tower Hamlets,558,ISLAND GARDENS - DLR,"East Ferry Road, London",E14 3DN,,,Docklands Light Railway Limited Station,Yes,Land & buildings ,Operational asset,LH,,,,538227,178444,,,,,,,,,,,,,,
244,Southwark,568,KENNINGTON,"Kennington Park Road, London",SE11 4JQ,,,London Underground Limited Station,Yes,Land & buildings ,Operational asset,FH,,,,531632,178284,,,,,,,,,,,,,,
245,Brent,570,KENSAL GREEN,"Harrow Road, London",NW10 5JT,,,London Underground Limited Station,Yes,Land & buildings ,Operational asset,OTH,,,,523241,182784,,,,,,,,,,,,,,
246,Brent,571,Kensal Green - Overground,"Harrow Road, London",NW10 5JT,,,London Overground Limited Station,Yes,Land & buildings ,Operational asset,OTH,,,,523241,182784,,,,,,,,,,,,,,
247,Brent,572,Kensal Rise - Overground,"Chamberlayne Road, London",NW10 3JN,,,London Overground Limited Station,Yes,Land & buildings ,Operational asset,OTH,,,,523578,183250,,,,,,,,,,,,,,
248,Hammersmith and Fulham,574,KENSINGTON (OLYMPIA),"Olympia Way, London",W14 0NE,,,London Underground Limited Station,Yes,Land & buildings ,Operational asset,OTH,,,,524324,179178,,,,,,,,,,,,,,
249,Camden,577,KENTISH TOWN,"Kentish Town Road, London",NW5 2AA,,,London Underground Limited Station,Yes,Land & buildings ,Operational asset,FH,,,,529028,185136,,,,,,,,,,,,,,
250,Camden,580,Kentish Town West - Overground,"Prince of Wales Road, London",NW5 4BA,,,London Overground Limited Station,Yes,Land & buildings ,Operational asset,OTH,,,,528597,184691,,,,,,,,,,,,,,
251,Brent,581,Kenton - Overground,"Kenton Road, London",HA3 0AZ,,,London Overground Limited Station,Yes,Land & buildings ,Operational asset,OTH,,,,516698,188340,,,,,,,,,,,,,,
252,Richmond upon Thames,583,Kew Gardens - Overground,"Station Parade, Richmond",TW9 4HJ,,,London Overground Limited Station,Yes,Land & buildings ,Operational asset,OTH,,,,519195,176741,,,,,,,,,,,,,,
253,Richmond upon Thames,584,KEW GARDENS PIER,"Kew Road, Richmond",TW9 3BE,,,London River Services Limited Thames Pier,Yes,Land & buildings ,Operational asset,OTH,,,,519067,177799,,,,,,,,,,,,,,
254,Brent,586,KILBURN,"Mapesbury Road, London",NW6 7QL,,,London Underground Limited Station,Yes,Land & buildings ,Operational asset,FH,,,,524589,184644,,,,,,,,,,,,,,
255,Camden,587,Kilburn High Road - Overground,"Kilburn High Road, London",NW6 5UA,,,London Overground Limited Station,Yes,Land & buildings ,Operational asset,OTH,,,,525475,183594,,,,,,,,,,,,,,
256,Brent,588,KILBURN PARK,"Cambridge Avenue, London",NW6 5AD,,,London Underground Limited Station,Yes,Land & buildings ,Operational asset,FH,,,,525361,183349,,,,,,,,,,,,,,
257,Newham,590,KING GEORGE V - DLR,Brixham Street,E16 2PD,,,Docklands Light Railway Limited Station,Yes,Land & buildings ,Operational asset,FH,,,,543237,180137,,,,,,,,,,,,,,
258,Croydon,591,KING HENRYS DRIVE - TRAM,"Parkway, Croydon",CR0 0JA,,,London Bus Services Limited Tram Stop,Yes,Land & buildings ,Operational asset,OTH,,,,537974,162564,,,,,,,,,,,,,,
259,City of London,592,KING WILLIAM STREET (DISUSED),"King William Street, London",EC4R 9AS,,,London Underground Limited Disused Station,Yes,Land & buildings ,Operational asset,OTH,,,,532869,180765,,,,,,,,,,,,,,
260,Camden,593,KINGS CROSS ST PANCRAS,"Euston Road, London",N1C 4AP,,,London Underground Limited Station,Yes,Land & buildings ,Operational asset,FH,,,,530236,182952,,,,,,,,,,,,,,
261,Brent,598,KINGSBURY,"Kingsbury Road, London",NW9 9EG,,,London Underground Limited Station,Yes,Land & buildings ,Operational asset,FH,,,,519349,188732,,,,,,,,,,,,,,
262,Kingston upon Thames,601,KINGSTON BUS STATION,"Cromwell Road, Kingston upon Thames",KT2 6RD,,,London Bus Services Limited Bus Premises,Yes,Land & buildings ,Operational asset,FH,,,,518403,169540,,,,,,,,,,,,,,
263,Kensington and Chelsea,605,KNIGHTSBRIDGE,"Sloane Street, London",SW3 1ED,,,London Underground Limited Station,Yes,Land & buildings ,Operational asset,FH,,,,527776,179680,,,,,,,,,,,,,,
264,Kensington and Chelsea,608,LADBROKE GROVE,"Ladbroke Grove, London",W10 6HJ,,,London Underground Limited Station,Yes,Land & buildings ,Operational asset,FH,,,,524238,181332,,,,,,,,,,,,,,
265,Lambeth,612,LAMBETH NORTH,"Wesminster Bridge Road, London",SE1 7XG,,,London Underground Limited Station,Yes,Land & buildings ,Operational asset,FH,,,,531165,179489,,,,,,,,,,,,,,
266,City of Westminster,613,LANCASTER GATE,"Bayswater Road, London",W2 2UE,,,London Underground Limited Station,Yes,Land & buildings ,Operational asset,FH,,,,526711,180796,,,,,,,,,,,,,,
267,Tower Hamlets,614,LANGDON PARK - DLR,"Willis Street, London",E14 0RZ,,,Docklands Light Railway Limited Station,Yes,Land & buildings ,Operational asset,FH,,,,537894,181442,,,,,,,,,,,,,,
268,Kensington and Chelsea,616,LATIMER ROAD,"Bramley Road, London",W10 6UG,,,London Underground Limited Station,Yes,Land & buildings ,Operational asset,FH,,,,523768,180915,,,,,,,,,,,,,,
269,Croydon,619,LEBANON ROAD - TRAM,"George Street, Croydon",CR0 5NL,,,London Bus Services Limited Tram Stop,Yes,Land & buildings ,Operational asset,OTH,,,,533356,165757,,,,,,,,,,,,,,
270,City of Westminster,622,LEICESTER SQUARE,"Cranbourn Street, London",WC2H 0AP,,,London Underground Limited Station,Yes,Land & buildings ,Operational asset,FH,,,,529987,180812,,,,,,,,,,,,,,
271,Lewisham,624,LEWISHAM - DLR,"Station Road, Lewisham",SE13 7RY,,,Docklands Light Railway Limited Station,Yes,Land & buildings ,Operational asset,FH,,,,538046,175946,,,,,,,,,,,,,,
272,Lewisham,626,LEWISHAM BUS STATION,"Station Road, Lewisham",SE13 7GB,,,London Bus Services Limited Bus Premises,Yes,Land & buildings ,Operational asset,FH,,,,538168,175868,,,,,,,,,,,,,,
273,Waltham Forest,629,LEYTON,"High Road Leyton, London",E10 5PS,,,London Underground Limited Station,Yes,Land & buildings ,Operational asset,FH,,,,538357,186064,,,,,,,,,,,,,,
274,Waltham Forest,634,Leyton Midland Road - Overground,"Midland Road, London",E10 6RN,,,London Overground Limited Station,Yes,Land & buildings ,Operational asset,OTH,,,,538191,187523,,,,,,,,,,,,,,
275,Waltham Forest,636,LEYTONSTONE,"Grove Green Road, London",E11 1HE,,,London Underground Limited Station,Yes,Land & buildings ,Operational asset,FH,,,,539280,187397,,,,,,,,,,,,,,
276,Waltham Forest,637,LEYTONSTONE BUS STATION,"Kirkdale Road, London",E11 1HP,,,London Bus Services Limited Bus Premises,Yes,Land & buildings ,Operational asset,FH,,,,539341,187473,,,,,,,,,,,,,,
277,Hammersmith and Fulham,640,LILLIE BRIDGE DEPOT,"West Cromwell Road, London",SW6 1TP,,,London Underground Limited Depot/Sidings,Yes,Land & buildings ,Operational asset,FH,,,,524983,178249,,,,,,,,,,,,,,
278,Tower Hamlets,641,LIMEHOUSE - DLR,"Branch Road, London",E14 7JE,,,Docklands Light Railway Limited Station,Yes,Land & buildings ,Operational asset,FH,,,,536127,181086,,,,,,,,,,,,,,
279,City of London,644,LIVERPOOL STREET,"Liverpool Street, London",EC2M 1QT,,,London Underground Limited Station,Yes,Land & buildings ,Operational asset,FH,,,,533110,181575,,,,,,,,,,,,,,
280,City of London,646,LIVERPOOL STREET BUS STATION,"Liverpool Street, London",EC2M 7PR,,,London Bus Services Limited Bus Premises,Yes,Land & buildings ,Operational asset,LH,,,,533134,181673,,,,,,,,,,,,,,
281,Croydon,648,LLOYD PARK - TRAM,"Coombe Road, Croydon",CR0 5BT,,,London Bus Services Limited Tram Stop,Yes,Land & buildings ,Operational asset,OTH,,,,533719,164540,,,,,,,,,,,,,,
282,Southwark,649,LONDON BRIDGE,"London Bridge Street, London",SE1 9SL,,,London Underground Limited Station,Yes,Land & buildings ,Operational asset,OTH,,,,532870,180250,,,,,,,,,,,,,,
283,Southwark,651,LONDON BRIDGE BUS STATION,"London Bridge Street, London",SE1 9SS,,,London Bus Services Limited Bus Premises,Yes,Land & buildings ,Operational asset,OTH,,,,532878,180195,,,,,,,,,,,,,,
284,Southwark,652,LONDON BRIDGE CITY PIER,"Tooley St, London",SE1 2SY,,,London River Services Limited Thames Pier,Yes,Land & buildings ,Operational asset,OTH,,,,533020,180401,,,,,,,,,,,,,,
285,Newham,653,LONDON CITY AIRPORT - DLR,"Drew Road, London",E16 2DJ,,,Docklands Light Railway Limited Station,Yes,Land & buildings ,Operational asset,FH,,,,542250,180292,,,,,,,,,,,,,,
286,Southwark,655,LONDON ROAD SIDINGS,"St Georges Circus, London",SE1 6EX,,,London Underground Limited Depot/Sidings,Yes,Land & buildings ,Operational asset,FH,,,,531606,179336,,,,,,,,,,,,,,
287,City of Westminster,658,LORDS (DISUSED),"Park Road, London",NW8 7HT,,,London Underground Limited Disused Station,Yes,Land & buildings ,Operational asset,FH,,,,527139,182780,,,,,,,,,,,,,,
288,Epping Forest,660,LOUGHTON,"Station Approach, Loughton",IG10 3NQ,,,London Underground Limited Station,Yes,Land & buildings ,Operational asset,FH,,,,542314,195641,,,,,,,,,,,,,,
289,Epping Forest,661,LOUGHTON SIDINGS,"The Crescent, Loughton",IG10 3NT,,,London Underground Limited Depot/Sidings,Yes,Land & buildings ,Operational asset,FH,,,,542202,195149,,,,,,,,,,,,,,
290,City of Westminster,663,MAIDA VALE,"Elgin Avenue, London",W9 1JS,,,London Underground Limited Station,Yes,Land & buildings ,Operational asset,FH,,,,525954,182773,,,,,,,,,,,,,,
291,Hackney,666,MANOR HOUSE,"Green Lanes, London",N4 2DE,,,London Underground Limited Station,Yes,Land & buildings ,Operational asset,FH,,,,532071,187490,,,,,,,,,,,,,,
292,City of London,668,MANSION HOUSE,"Queen Victoria Street, London",EC4V 2EA,,,London Underground Limited Station,Yes,Land & buildings ,Operational asset,FH,,,,532347,180962,,,,,,,,,,,,,,
293,City of Westminster,669,MARBLE ARCH,"Oxford Street, London",W1C 1LX,,,London Underground Limited Station,Yes,Land & buildings ,Operational asset,FH,,,,527885,181017,,,,,,,,,,,,,,
294,City of Westminster,670,MARLBOROUGH ROAD (DISUSED),"QUEENS GROVE, London",NW8 6ES,,,London Underground Limited Disused Station,Yes,Land & buildings ,Operational asset,FH,,,,526605,183563,,,,,,,,,,,,,,
295,City of Westminster,674,MARYLEBONE,"Harewood Row, London",NW1 6JJ,,,London Underground Limited Station,Yes,Land & buildings ,Operational asset,OTH,,,,527537,181974,,,,,,,,,,,,,,
296,Tower Hamlets,677,MASTHOUSE TERRACE PIER,"Maritime Quay, London",E14 3QE,,,London River Services Limited Thames Pier,Yes,Land & buildings ,Operational asset,OTH,,,,537417,178354,,,,,,,,,,,,,,
297,Merton,681,MERTON PARK - TRAM,"Rutlish Road, Merton",SW19 3AL,,,London Bus Services Limited Tram Stop,Yes,Land & buildings ,Operational asset,FH,,,,525184,169835,,,,,,,,,,,,,,
298,Tower Hamlets,682,MILE END,"Mile End Road, London",E3 4PH,,,London Underground Limited Station,Yes,Land & buildings ,Operational asset,FH,,,,536525,182527,,,,,,,,,,,,,,
299,Barnet,684,MILL HILL EAST,"Bittacy Hill, London",NW7 1BS,,,London Underground Limited Station,Yes,Land & buildings ,Operational asset,FH,,,,524057,191460,,,,,,,,,,,,,,
300,City of Westminster,686,MILLBANK MILLENIUM PIER,"Millbank, London",SW1P 4RR,,,London River Services Limited Thames Pier,Yes,Land & buildings ,Operational asset,LH,,,,530279,178653,,,,,,,,,,,,,,
301,Merton,688,MITCHAM - TRAM,"Morden Road, Mitcham",CR4 4BG,,,London Bus Services Limited Tram Stop,Yes,Land & buildings ,Operational asset,FH,,,,527331,168079,,,,,,,,,,,,,,
302,Merton,690,MITCHAM JUNCTION - TRAM,"Carshalton Road, Mitcham",CR4 4HG,,,London Bus Services Limited Tram Stop,Yes,Land & buildings ,Operational asset,FH,,,,528278,167574,,,,,,,,,,,,,,
303,City of London,692,MONUMENT,"King William Street, London",EC4R 9AA,,,London Underground Limited Station,Yes,Land & buildings ,Operational asset,FH,,,,532907,180814,,,,,,,,,,,,,,
304,Three Rivers,693,MOOR PARK,"Main Avenue, Northwood",HA6 2JQ,,,London Underground Limited Station,Yes,Land & buildings ,Operational asset,FH,,,,508582,193493,,,,,,,,,,,,,,
305,City of London,694,MOORGATE,"Moorfields, London",EC2Y 9AE,,,London Underground Limited Station,Yes,Land & buildings ,Operational asset,FH,,,,532688,181677,,,,,,,,,,,,,,
306,Merton,695,MORDEN,"London Road, London",SM4 5AZ,,,London Underground Limited Station,Yes,Land & buildings ,Operational asset,FH,,,,525668,168589,,,,,,,,,,,,,,
307,Merton,696,MORDEN DEPOT,"London Road, London",SM4 5HQ,,,London Underground Limited Depot/Sidings,Yes,Land & buildings ,Operational asset,FH,,,,525517,168055,,,,,,,,,,,,,,
308,Merton,697,MORDEN ROAD - TRAM,"Dorset Road, Merton",SW19 3BU,,,London Bus Services Limited Tram Stop,Yes,Land & buildings ,Operational asset,FH,,,,525780,169309,,,,,,,,,,,,,,
309,Camden,699,MORNINGTON CRESCENT,"Milbrook Place, London",NW1 2JA,,,London Underground Limited Station,Yes,Land & buildings ,Operational asset,FH,,,,529186,183349,,,,,,,,,,,,,,
310,Tower Hamlets,703,MUDCHUTE - DLR,"East Ferry Road, London",E14 9UW,,,Docklands Light Railway Limited Station,Yes,Land & buildings ,Operational asset,FH,,,,537904,178750,,,,,,,,,,,,,,
311,Brent,705,NEASDEN,"Neasden Lane, Willesden",NW10 1PH,,,London Underground Limited Station,Yes,Land & buildings ,Operational asset,FH,,,,521440,185356,,,,,,,,,,,,,,
312,Brent,706,NEASDEN DEPOT,"Neasden Lane, Willesden",NW10 0LN,,,London Underground Limited Depot/Sidings,Yes,Land & buildings ,Operational asset,FH,,,,520798,185743,,,,,,,,,,,,,,
313,Southwark,707,NELSON DOCK PIER,"Roherhithe Street, London",SE16 5HA,,,London River Services Limited Thames Pier,Yes,Land & buildings ,Operational asset,OTH,,,,536696,180235,,,,,,,,,,,,,,
314,Croydon,708,NEW ADDINGTON - TRAM,"Parkway, Croydon",CR0 0JA,,,London Bus Services Limited Tram Stop,Yes,Land & buildings ,Operational asset,OTH,,,,538173,162268,,,,,,,,,,,,,,
315,Lewisham,713,NEW CROSS DEPOT,"Edward Street, London",SE14 6EB,,,London Underground Limited Depot/Sidings,Yes,Land & buildings ,Operational asset,FH,,,,536548,177554,,,,,,,,,,,,,,
316,Lewisham,715,New Cross Gate - Overground,"New Cross Road, London",SE14 6AR,,,London Overground Limited Station,Yes,Land & buildings ,Operational asset,OTH,,,,536195,176937,,,,,,,,,,,,,,
317,Redbridge,722,NEWBURY PARK,"Eastern Avenue, London",IG2 7RN,,,London Underground Limited Station,Yes,Land & buildings ,Operational asset,FH,,,,544947,188378,,,,,,,,,,,,,,
318,Ealing,728,NORTH ACTON,"Victoria Road, London",W3 6UP,,,London Underground Limited Station,Yes,Land & buildings ,Operational asset,FH,,,,520831,181937,,,,,,,,,,,,,,
319,Ealing,730,NORTH EALING,"Station Road, London",W5 3AF,,,London Underground Limited Station,Yes,Land & buildings ,Operational asset,FH,,,,518816,181243,,,,,,,,,,,,,,
320,Barnet,731,NORTH FINCHLEY BUS STATION,"Ballards Lane, London",N12 0GA,,,London Bus Services Limited Bus Premises,Yes,Land & buildings ,Operational asset,LH,,,,526339,192001,,,,,,,,,,,,,,
321,Greenwich,732,NORTH GREENWICH,"Millenium Way, London",SE10 0PH,,,London Underground Limited Station,Yes,Land & buildings ,Operational asset,FH,,,,539168,179827,,,,,,,,,,,,,,
322,Greenwich,733,NORTH GREENWICH BUS STATION,Ordnance Crescent,SE10 0PH,,,London Bus Services Limited Bus Premises,Yes,Land & buildings ,Operational asset,OTH,,,,539128,179807,,,,,,,,,,,,,,
323,Harrow,734,NORTH HARROW,"Station Road, North Harrow",HA2 7SR,,,London Underground Limited Station,Yes,Land & buildings ,Operational asset,FH,,,,513569,188603,,,,,,,,,,,,,,
324,Brent,738,NORTH WEMBLEY,"East Lane, Wembley",HA9 7LU,,,London Underground Limited Station,Yes,Land & buildings ,Operational asset,FH,,,,517649,186215,,,,,,,,,,,,,,
325,Brent,739,North Wembley - Overground,"East Lane, Wembley",HA9 7LU,,,London Overground Limited Station,Yes,Land & buildings ,Operational asset,OTH,,,,517641,186239,,,,,,,,,,,,,,
326,Newham,741,NORTH WOOLWICH PIER,"Pier Road, London",E16 2JJ,,,London River Services Limited Thames Pier,Yes,Land & buildings ,Operational asset,OTH,,,,543345,179702,,,,,,,,,,,,,,
327,Ealing,743,NORTHFIELDS,"NORTHFIELD AVENUE, London",W13 9QU,,,London Underground Limited Station,Yes,Land & buildings ,Operational asset,FH,,,,517118,179170,,,,,,,,,,,,,,
328,Ealing,744,NORTHFIELDS & LITTLE EALING (DISUSED),"NORTHFIELD AVENUE, London",W13 9SJ,,,London Underground Limited Disused Station,Yes,Land & buildings ,Operational asset,FH,,,,517047,179159,,,,,,,,,,,,,,
329,Ealing,745,NORTHFIELDS DEPOT,"NORTHFIELD AVENUE, London",W5 4UB,,,London Underground Limited Depot/Sidings,Yes,Land & buildings ,Operational asset,FH,,,,516649,178893,,,,,,,,,,,,,,
330,Ealing,747,NORTHOLT,"Mandeville Road, Northolt",UB5 4AA,,,London Underground Limited Station,Yes,Land & buildings ,Operational asset,FH,,,,513228,184519,,,,,,,,,,,,,,
331,Haringey,750,NORTHUMBERLAND PARK,"Marsh Lane, London",N17 0XE,,,London Underground Limited Depot/Sidings,Yes,Land & buildings ,Operational asset,FH,,,,534922,190911,,,,,,,,,,,,,,
332,Haringey,751,NORTHUMBERLAND PARK DEPOT,"Marsh Lane, London",N17 9YE,,,London Underground Limited Depot/Sidings,Yes,Land & buildings ,Operational asset,FH,,,,534878,190633,,,,,,,,,,,,,,
333,Brent,752,NORTHWICK PARK,"Northwick Avenue, Harrow",HA3 0AT,,,London Underground Limited Station,Yes,Land & buildings ,Operational asset,FH,,,,516634,187983,,,,,,,,,,,,,,
334,Hillingdon,753,NORTHWOOD,"Green Lane, Northwood",HA6 2XL,,,London Underground Limited Station,Yes,Land & buildings ,Operational asset,FH,,,,509236,191441,,,,,,,,,,,,,,
335,Hillingdon,754,NORTHWOOD HILLS,"Joel Street, Northwood",HA6 1NZ,,,London Underground Limited Station,Yes,Land & buildings ,Operational asset,FH,,,,510270,190277,,,,,,,,,,,,,,
336,Kensington and Chelsea,758,NOTTING HILL GATE,"Notting Hill Gate, London",W11 3HT,,,London Underground Limited Station,Yes,Land & buildings ,Operational asset,OTH,,,,525254,180453,,,,,,,,,,,,,,
337,Enfield,762,OAKWOOD,"Bramley Road, London",N14 4UT,,,London Underground Limited Station,Yes,Land & buildings ,Operational asset,FH,,,,529349,195968,,,,,,,,,,,,,,
338,Bromley,768,ORPINGTON BUS STATION,"Station Approach, Orpington",BR6 0SX,,,London Bus Services Limited Bus Premises,Yes,Land & buildings ,Operational asset,LH,,,,545530,165920,,,,,,,,,,,,,,
339,Hounslow,771,OSTERLEY,"Great West Road, Hounslow",TW7 4PU,,,London Underground Limited Station,Yes,Land & buildings ,Operational asset,FH,,,,514538,177070,,,,,,,,,,,,,,
340,Hounslow,772,OSTERLEY PARK & SPRING GROVE (DISUSED),"Thornbury Road, Isleworth",TW7 4QQ,,,London Underground Limited Disused Station,Yes,Land & buildings ,Operational asset,FH,,,,514762,177310,,,,,,,,,,,,,,
341,Lambeth,774,OVAL,"Kennington Park Road, London",SE11 4PP,,,London Underground Limited Station,Yes,Land & buildings ,Operational asset,FH,,,,531135,177602,,,,,,,,,,,,,,
342,City of Westminster,775,OXFORD CIRCUS,"Oxford Street, London",W1B 3AH,,,London Underground Limited Station,Yes,Land & buildings ,Operational asset,FH,,,,529037,181222,,,,,,,,,,,,,,
343,City of Westminster,778,PADDINGTON,"Craven Road, London",W2 1RH,,,London Underground Limited Station,Yes,Land & buildings ,Operational asset,FH,,,,526704,181184,,,,,,,,,,,,,,
344,Enfield,783,PALMERS GREEN,"North Circular Road, London",N13 5UN,,,London Bus Services Limited Bus Premises,Yes,Land & buildings ,Operational asset,LH,,,,531166,192213,,,,,,,,,,,,,,
345,Ealing,785,PARK ROYAL,"Western Avenue, London",W5 3EL,,,London Underground Limited Station,Yes,Land & buildings ,Operational asset,FH,,,,519123,182290,,,,,,,,,,,,,,
346,Ealing,786,PARK ROYAL & TWYFORD ABBEY (DISUSED),"Western Avenue, London",W3 0TE,,,London Underground Limited Disused Station,Yes,Land & buildings ,Operational asset,OTH,,,,519679,182280,,,,,,,,,,,,,,
347,Hammersmith and Fulham,789,PARSONS GREEN,"Parsons Green Lane, London",SW6 4HS,,,London Underground Limited Station,Yes,Land & buildings ,Operational asset,FH,,,,525021,176668,,,,,,,,,,,,,,
348,Hammersmith and Fulham,791,PARSONS GREEN SIDINGS,"Parsons Green Lane, London",SW6 4EH,,,London Underground Limited Depot/Sidings,Yes,Land & buildings ,Operational asset,FH,,,,524815,176529,,,,,,,,,,,,,,
349,Southwark,792,PECKHAM BUS STATION,"Peckham High Street, London",SE15 5ED,,,London Bus Services Limited Bus Premises,Yes,Land & buildings ,Operational asset,FH,,,,534318,176737,,,,,,,,,,,,,,
350,Ealing,800,PERIVALE,"Horsenden Lane South, Greenford",UB6 8AE,,,London Underground Limited Station,Yes,Land & buildings ,Operational asset,FH,,,,516350,183304,,,,,,,,,,,,,,
351,Merton,802,PHIPPS BRIDGE - TRAM,"New Close, Merton",SW19 2SU,,,London Bus Services Limited Tram Stop,Yes,Land & buildings ,Operational asset,FH,,,,526530,168722,,,,,,,,,,,,,,
352,City of Westminster,803,PICCADILLY CIRCUS,"Piccadilly Circus, London",W1J 9HS,,,London Underground Limited Station,Yes,Land & buildings ,Operational asset,OTH,,,,529590,180669,,,,,,,,,,,,,,
353,City of Westminster,804,PIMLICO,"Bessborough Street, London",SW1V 3DY,,,London Underground Limited Station,Yes,Land & buildings ,Operational asset,OTH,,,,529668,178353,,,,,,,,,,,,,,
354,Harrow,805,PINNER,"Station Approach, Pinner",HA5 5LZ,,,London Underground Limited Station,Yes,Land & buildings ,Operational asset,FH,,,,512254,189471,,,,,,,,,,,,,,
355,Newham,808,PLAISTOW,"Plaistow Road, London",E13 0DY,,,London Underground Limited Station,Yes,Land & buildings ,Operational asset,FH,,,,540058,183305,,,,,,,,,,,,,,
356,Newham,816,PONTOON DOCK - DLR,"North Woolwich Road, London",E16 2BE,,,Docklands Light Railway Limited Station,Yes,Land & buildings ,Operational asset,OTH,,,,541219,180109,,,,,,,,,,,,,,
357,Tower Hamlets,817,POPLAR - DLR,"Poplar High Street, London",E14 0BY,,,Docklands Light Railway Limited Station,Yes,Land & buildings ,Operational asset,FH,,,,537701,180617,,,,,,,,,,,,,,
358,Tower Hamlets,818,POPLAR DEPOT,"Poplar High Street, London",E14 0AP,,,London Underground Limited Depot/Sidings,Yes,Land & buildings ,Operational asset,FH,,,,537908,180622,,,,,,,,,,,,,,
359,Brent,821,PRESTON ROAD,"Preston Road, Wembley",HA3 0PS,,,London Underground Limited Station,Yes,Land & buildings ,Operational asset,FH,,,,518241,187291,,,,,,,,,,,,,,
360,Newham,822,PRINCE REGENT - DLR,"Victoria Dock Road, London",E16 3BX,,,Docklands Light Railway Limited Station,Yes,Land & buildings ,Operational asset,FH,,,,541264,180899,,,,,,,,,,,,,,
361,Newham,823,PUDDING MILL LANE - DLR,"Pudding Mill Lane, London",E15 2PE,,,Docklands Light Railway Limited Station,Yes,Land & buildings ,Operational asset,FH,,,,537847,183568,,,,,,,,,,,,,,
362,Hammersmith and Fulham,829,PUTNEY BRIDGE,"Station Approach, London",SW6 3UH,,,London Underground Limited Station,Yes,Land & buildings ,Operational asset,FH,,,,524503,175855,,,,,,,,,,,,,,
363,Hammersmith and Fulham,830,PUTNEY BRIDGE BUS STATION,"Station Approach, London",SW6 3UG,,,London Bus Services Limited Bus Premises,Yes,Land & buildings ,Operational asset,FH,,,,524491,175873,,,,,,,,,,,,,,
364,Wandsworth,831,PUTNEY PIER,"Lower Richmond Road, London",SW15 1LB,,,London River Services Limited Thames Pier,Yes,Land & buildings ,Operational asset,OTH,,,,524053,175772,,,,,,,,,,,,,,
365,Greenwich,832,QEII PIER (NORTH GREENWICH),"Cutter Lane, London",SE10 0JF,,,London River Services Limited Thames Pier,Yes,Land & buildings ,Operational asset,OTH,,,,539546,180052,,,,,,,,,,,,,,
366,Brent,833,QUEENS PARK,"Salusbury Road, Kilburn",NW6 6NL,,,London Underground Limited Station,Yes,Land & buildings ,Operational asset,FH,,,,524619,183223,,,,,,,,,,,,,,
367,Brent,834,QUEENS PARK DEPOT,"Salusbury Road, Kilburn",NW6 6NL,,,London Underground Limited Depot/Sidings,Yes,Land & buildings ,Operational asset,FH,,,,524460,183166,,,,,,,,,,,,,,
368,Brent,836,QUEENSBURY,"Queensbury Station Parade, Edgeware",HA8 5NP,,,London Underground Limited Station,Yes,Land & buildings ,Operational asset,FH,,,,518839,189787,,,,,,,,,,,,,,
369,City of Westminster,838,QUEENSWAY,"Bayswater Road, London",W2 4RH,,,London Underground Limited Station,Yes,Land & buildings ,Operational asset,FH,,,,525883,180615,,,,,,,,,,,,,,
370,Hammersmith and Fulham,843,RAVENSCOURT PARK,"Ravenscourt Place, London",W6 0UG,,,London Underground Limited Station,Yes,Land & buildings ,Operational asset,FH,,,,522538,178726,,,,,,,,,,,,,,
371,Harrow,844,RAYNERS LANE,"Imperial Drive, South Harrow",HA2 9RY,,,London Underground Limited Station,Yes,Land & buildings ,Operational asset,FH,,,,512985,187498,,,,,,,,,,,,,,
372,Redbridge,847,REDBRIDGE,"Eastern Avenue, London",IG4 5DQ,,,London Underground Limited Station,Yes,Land & buildings ,Operational asset,FH,,,,541833,188371,,,,,,,,,,,,,,
373,Croydon,849,REEVES CORNER - TRAM,"George Street, Croydon",CR0 1XU,,,London Bus Services Limited Tram Stop,Yes,Land & buildings ,Operational asset,OTH,,,,531904,165672,,,,,,,,,,,,,,
374,City of Westminster,850,REGENTS PARK,"Marylebone Road, London",NW1 5HA,,,London Underground Limited Station,Yes,Land & buildings ,Operational asset,OTH,,,,528660,182145,,,,,,,,,,,,,,
375,Richmond upon Thames,851,RICHMOND ,"Kew Road, Richmond",TW9 2NQ,,,London Underground Limited Station,Yes,Land & buildings ,Operational asset,OTH,,,,518072,175174,,,,,,,,,,,,,,
376,Richmond upon Thames,852,RICHMOND BUS STATION,"Kew Road, Richmond",TW9 2NQ,,,London Bus Services Limited Bus Premises,Yes,Land & buildings ,Operational asset,OTH,,,,518051,175184,,,,,,,,,,,,,,
377,Richmond upon Thames,854,RICHMOND LANDING STAGE,"Petersham Road, Richmond",TW10 6UJ,,,London River Services Limited Thames Pier,Yes,Land & buildings ,Operational asset,OTH,,,,517861,174406,,,,,,,,,,,,,,
378,Three Rivers,856,RICKMANSWORTH,"Station Approach, Rickmansworth",WD3 1QY,,,London Underground Limited Station,Yes,Land & buildings ,Operational asset,FH,,,,505717,194605,,,,,,,,,,,,,,
379,Three Rivers,857,RICKMANSWORTH SIDINGS,"Park Road, London",WD3 1RE,,,London Underground Limited Depot/Sidings,Yes,Land & buildings ,Operational asset,FH,,,,506423,194798,,,,,,,,,,,,,,
380,Epping Forest,860,RODING VALLEY,"Station Way, London",IG9 6LN,,,London Underground Limited Station,Yes,Land & buildings ,Operational asset,FH,,,,541598,192906,,,,,,,,,,,,,,
381,Southwark,864,Rotherhithe - Overground,"Albion Road, London",SE16 4LF,,,London Overground Limited Station,Yes,Land & buildings ,Operational asset,FH,,,,535299,179811,,,,,,,,,,,,,,
382,Newham,866,ROYAL ALBERT - DLR,"Victoria Dock Road, London",E16 2QD,,,Docklands Light Railway Limited Station,Yes,Land & buildings ,Operational asset,OTH,,,,542077,180815,,,,,,,,,,,,,,
383,City of Westminster,867,ROYAL OAK,"Lords Hill Bridge, London",W2 6ET,,,London Underground Limited Station,Yes,Land & buildings ,Operational asset,OTH,,,,525803,181574,,,,,,,,,,,,,,
384,Newham,868,ROYAL VICTORIA - DLR,"Victoria Dock Road, London",E16 1AL,,,Docklands Light Railway Limited Station,Yes,Land & buildings ,Operational asset,FH,,,,540122,180852,,,,,,,,,,,,,,
385,Hillingdon,869,RUISLIP,"Station Approach, Hillingdon",HA4 8LD,,,London Underground Limited Station,Yes,Land & buildings ,Operational asset,FH,,,,509498,187029,,,,,,,,,,,,,,
386,Hillingdon,870,RUISLIP DEPOT,"West End Road, Uxbridge",UB10 8PQ,,,London Underground Limited Depot/Sidings,Yes,Land & buildings ,Operational asset,FH,,,,509050,186292,,,,,,,,,,,,,,
387,Hillingdon,872,RUISLIP GARDENS,"West End Road, Ruislip",HA4 6LG,,,London Underground Limited Station,Yes,Land & buildings ,Operational asset,FH,,,,510246,185837,,,,,,,,,,,,,,
388,Hillingdon,873,RUISLIP MANOR,"West End Road, Ruislip",HA4 9AA,,,London Underground Limited Station,Yes,Land & buildings ,Operational asset,FH,,,,510125,187236,,,,,,,,,,,,,,
389,Camden,875,RUSSELL SQUARE,"Bernard Street, London",WC1N 1LJ,,,London Underground Limited Station,Yes,Land & buildings ,Operational asset,FH,,,,530226,182119,,,,,,,,,,,,,,
390,Croydon,877,SANDILANDS - TRAM,"Addiscombe Road, Croydon",CR0 5PP,,,London Bus Services Limited Tram Stop,Yes,Land & buildings ,Operational asset,FH,,,,533891,165742,,,,,,,,,,,,,,
391,City of Westminster,878,SAVOY PIER,"Victoria Embankment, London",WC2N 6NU,,,London River Services Limited Thames Pier,Yes,Land & buildings ,Operational asset,OTH,,,,530609,180546,,,,,,,,,,,,,,
392,Haringey,882,SEVEN SISTERS,"Seven Sisters Road, London",N15 5LA,,,London Underground Limited Station,Yes,Land & buildings ,Operational asset,FH,,,,533643,188933,,,,,,,,,,,,,,
393,Tower Hamlets,885,SHADWELL - DLR,"Watney Street, London",E1 2PH,,,Docklands Light Railway Limited Station,Yes,Land & buildings ,Operational asset,FH,,,,534947,180986,,,,,,,,,,,,,,
394,Hammersmith and Fulham,888,SHEPHERDS BUSH (DISUSED),"Shepherds Bush Market, London",W12 8QN,,,London Underground Limited Disused Station,Yes,Land & buildings ,Operational asset,FH,,,,523174,179818,,,,,,,,,,,,,,
395,Hammersmith and Fulham,889,SHEPHERDS BUSH,"Uxbridge Road, London",W12 8ND,,,London Underground Limited Station,Yes,Land & buildings ,Operational asset,FH,,,,523724,179902,,,,,,,,,,,,,,
396,Hammersmith and Fulham,890,SHEPHERDS BUSH MARKET,"Uxbridge Road, London",W12 7JP,,,London Underground Limited Station,Yes,Land & buildings ,Operational asset,FH,,,,523198,180013,,,,,,,,,,,,,,
397,Tower Hamlets,893,SHOREDITCH,"Pedley Street, London",E2 6ES,,,London Underground Limited Disused Station,Yes,Land & buildings ,Operational asset,FH,,,,533964,182196,,,,,,,,,,,,,,
398,Enfield,901,SILVER STREET,"Park Road, London",N9 0SF,,,London Bus Services Limited Bus Premises,Yes,Land & buildings ,Operational asset,OTH,,,,534054,192794,,,,,,,,,,,,,,
399,Newham,902,SILVERTOWN,"Connaught Road, London",E16 3HS,,,London Bus Services Limited Bus Premises,Yes,Land & buildings ,Operational asset,FH,,,,541302,180961,,,,,,,,,,,,,,
400,Kensington and Chelsea,906,SLOANE SQUARE,"Sloane Square, London",SW1W 8AS,,,London Underground Limited Station,Yes,Land & buildings ,Operational asset,FH,,,,528080,178657,,,,,,,,,,,,,,
401,Redbridge,909,SNARESBROOK,"Station Approach, London",E11 1QE,,,London Underground Limited Station,Yes,Land & buildings ,Operational asset,FH,,,,540161,188828,,,,,,,,,,,,,,
402,Ealing,914,South Acton - Overground,"Palmerston Road, London",W3 8TG,,,London Overground Limited Station,Yes,Land & buildings ,Operational asset,OTH,,,,520148,179250,,,,,,,,,,,,,,
403,Ealing,917,SOUTH EALING,"South Ealing Road, London",W5 4QB,,,London Underground Limited Station,Yes,Land & buildings ,Operational asset,FH,,,,517608,179414,,,,,,,,,,,,,,
404,Camden,919,South Hampstead - Overground,"Loudoun Road, London",NW6 4TN,,,London Overground Limited Station,Yes,Land & buildings ,Operational asset,OTH,,,,526369,184096,,,,,,,,,,,,,,
405,Harrow,920,SOUTH HARROW,"Northolt Road, Harrow",HA2 0DU,,,London Underground Limited Station,Yes,Land & buildings ,Operational asset,FH,,,,514313,186382,,,,,,,,,,,,,,
406,Harrow,921,SOUTH HARROW SIDINGS,"South Hill Avenue, South Harrow",HA1 3PD,,,London Underground Limited Depot/Sidings,Yes,Land & buildings ,Operational asset,FH,,,,514556,186034,,,,,,,,,,,,,,
407,Kensington and Chelsea,922,SOUTH KENSINGTON,"Pelham Street, London",SW7 2NA,,,London Underground Limited Station,Yes,Land & buildings ,Operational asset,FH,,,,526865,178817,,,,,,,,,,,,,,
408,Camden,923,SOUTH KENTISH TOWN (DISUSED),"Kentish Town Road, London",NW1 8PD,,,London Underground Limited Disused Station,Yes,Land & buildings ,Operational asset,OTH,,,,528946,184531,,,,,,,,,,,,,,
409,Brent,924,SOUTH KENTON,"Windermere Avenue, London",HA9 8RB,,,London Underground Limited Station,Yes,Land & buildings ,Operational asset,OTH,,,,517322,187062,,,,,,,,,,,,,,
410,Brent,925,South Kenton - Overground,"Windermere Avenue, London",HA9 8RB,,,London Overground Limited Station,Yes,Land & buildings ,Operational asset,OTH,,,,517316,187081,,,,,,,,,,,,,,
411,Tower Hamlets,928,SOUTH QUAY - DLR,"East Ferry Road, London",E14 9SH,,,Docklands Light Railway Limited Station,Yes,Land & buildings ,Operational asset,OTH,,,,537597,179824,,,,,,,,,,,,,,
412,Hillingdon,929,SOUTH RUISLIP,"Station Approach, Ruislip",HA4 6TP,,,London Underground Limited Station,Yes,Land & buildings ,Operational asset,FH,,,,511114,185403,,,,,,,,,,,,,,
413,Haringey,930,South Tottenham - Overground,"High Road, London",N15 4GW,,,London Overground Limited Station,Yes,Land & buildings ,Operational asset,OTH,,,,533687,188621,,,,,,,,,,,,,,
414,Merton,931,SOUTH WIMBLEDON,"Merton High Street, London",SW19 1DE,,,London Underground Limited Station,Yes,Land & buildings ,Operational asset,FH,,,,525828,170033,,,,,,,,,,,,,,
415,Redbridge,932,SOUTH WOODFORD,"George Lane, London",E18 1AG,,,London Underground Limited Station,Yes,Land & buildings ,Operational asset,FH,,,,540531,190051,,,,,,,,,,,,,,
416,Wandsworth,937,SOUTHFIELDS,"Wimbledon Park Road, London",SW18 5RL,,,London Underground Limited Station,Yes,Land & buildings ,Operational asset,FH,,,,524735,173305,,,,,,,,,,,,,,
417,Enfield,938,SOUTHGATE,"Chase Side, London",N14 5BH,,,London Underground Limited Station,Yes,Land & buildings ,Operational asset,FH,,,,529675,194278,,,,,,,,,,,,,,
418,Southwark,941,SOUTHWARK,"Blackfriars Road, London",SE1 8NJ,,,London Underground Limited Station,Yes,Land & buildings ,Operational asset,FH,,,,531614,180033,,,,,,,,,,,,,,
419,Richmond upon Thames,945,ST HELENA PIER,"Petersham Road, Richmond",TW10 6UJ,,,London River Services Limited Thames Pier,Yes,Land & buildings ,Operational asset,OTH,,,,517861,174406,,,,,,,,,,,,,,
420,City of Westminster,947,ST JAMES PARK,"Broadway, London",SW1H 9AJ,,,London Underground Limited Station,Yes,Land & buildings ,Operational asset,FH,,,,529608,179481,,,,,,,,,,,,,,
421,City of Westminster,949,ST JOHNS WOOD,"Wellington Road, London",NW8 6BJ,,,London Underground Limited Station,Yes,Land & buildings ,Operational asset,FH,,,,526735,183327,,,,,,,,,,,,,,
422,Tower Hamlets,951,ST KATHERINE PIER,"St Katharine's Way, London",E1W 1LD,,,London River Services Limited Thames Pier,Yes,Land & buildings ,Operational asset,OTH,,,,533801,180325,,,,,,,,,,,,,,
423,Tower Hamlets,953,ST MARYS (DISUSED),"Whitechapel Road, London",E1 1JE,,,London Underground Limited Disused Station,Yes,Land & buildings ,Operational asset,FH,,,,534372,181646,,,,,,,,,,,,,,
424,City of London,956,ST PAULS,Newgate Street,EC2V 6AA,,,London Underground Limited Station,Yes,Land & buildings ,Operational asset,FH,,,,532104,181265,,,,,,,,,,,,,,
425,Hounslow,960,STAMFORD BROOK,"Goldhawk Road, Chiswick",W6 0XA,,,London Underground Limited Station,Yes,Land & buildings ,Operational asset,FH,,,,521898,178784,,,,,,,,,,,,,,
426,Harrow,963,STANMORE,"London Road, Stanmore",HA7 4PD,,,London Underground Limited Station,Yes,Land & buildings ,Operational asset,FH,,,,517574,192569,,,,,,,,,,,,,,
427,Harrow,965,STANMORE STATION SIDINGS,"Whitechurch Road, Edgeware",HA7 4RZ,,,London Underground Limited Depot/Sidings,Yes,Land & buildings ,Operational asset,FH,,,,517782,192232,,,,,,,,,,,,,,
428,Tower Hamlets,966,STEPNEY GREEN,"Whitechapel Road, London",E1 4AQ,,,London Underground Limited Station,Yes,Land & buildings ,Operational asset,FH,,,,535629,182149,,,,,,,,,,,,,,
429,Lambeth,967,STOCKWELL,"Clapham Road, London",SW9 9AE,,,London Underground Limited Station,Yes,Land & buildings ,Operational asset,FH,,,,530468,176479,,,,,,,,,,,,,,
430,Hackney,969,STOKE NEWINGTON,"Stoke Newington Common, London",N16 7LE,,,London Bus Services Limited Bus Premises,Yes,Land & buildings ,Operational asset,FH,,,,533880,186473,,,,,,,,,,,,,,
431,Brent,973,Stonebridge Park - Overground,"Argenta Way, Willesden",NW10 7RH,,,London Overground Limited Station,Yes,Land & buildings ,Operational asset,OTH,,,,519687,184195,,,,,,,,,,,,,,
432,Brent,974,STONEBRIDGE PARK DEPOT,"North Circular Road, Wembley",NW10 0HQ,,,London Underground Limited Depot/Sidings,Yes,Land & buildings ,Operational asset,FH,,,,518990,184594,,,,,,,,,,,,,,
433,Newham,977,STRATFORD,"Meridian Square, London",E15 1AZ,,,London Underground Limited Station,Yes,Land & buildings ,Operational asset,LH,,,,538571,184387,,,,,,,,,,,,,,
434,Newham,979,STRATFORD BUS STATION,"Great Eastern Road, London",E15 1BB,,,London Bus Services Limited Bus Premises,Yes,Land & buildings ,Operational asset,LH,,,,538649,184343,,,,,,,,,,,,,,
435,Newham,980,STRATFORD DEPOT,"Abbey Road, London",E15 2GN,,,London Underground Limited Depot/Sidings,Yes,Land & buildings ,Operational asset,FH,,,,538870,183572,,,,,,,,,,,,,,
436,Harrow,989,SUDBURY HILL,"Greenford Road, Harrow",HA1 3QN,,,London Underground Limited Station,Yes,Land & buildings ,Operational asset,FH,,,,515441,185553,,,,,,,,,,,,,,
437,Brent,991,SUDBURY TOWN,"Station Approach, Sudbury Town",HA0 2LA,,,London Underground Limited Station,Yes,Land & buildings ,Operational asset,FH,,,,516894,184895,,,,,,,,,,,,,,
438,Southwark,999,Surrey Quays - Overground,"Lower Road, London",SE16 2UF,,,London Overground Limited Station,Yes,Land & buildings ,Operational asset,FH,,,,535631,178962,,,,,,,,,,,,,,
439,Camden,1006,SWISS COTTAGE,"Finchley Road, London",NW6 4TL,,,London Underground Limited Station,Yes,Land & buildings ,Operational asset,OTH,,,,526670,184299,,,,,,,,,,,,,,
440,City of Westminster,1016,TEMPLE,"Victoria Embankment, London",WC2R 2PH,,,London Underground Limited Station,Yes,Land & buildings ,Operational asset,OTH,,,,530996,180810,,,,,,,,,,,,,,
441,Sutton,1020,THERAPIA LANE - TRAM,"Coomber Way, Mitcham",CR0 3DD,,,London Bus Services Limited Tram Stop,Yes,Land & buildings ,Operational asset,FH,,,,530270,166848,,,,,,,,,,,,,,
442,Epping Forest,1021,THEYDON BOIS,"Coppice Row, Theydon Bois",CM16 7HR,,,London Underground Limited Station,Yes,Land & buildings ,Operational asset,FH,,,,545525,199093,,,,,,,,,,,,,,
443,Wandsworth,1025,TOOTING BEC,"Trinity Road, London",SW17 7RE,,,London Underground Limited Station,Yes,Land & buildings ,Operational asset,FH,,,,528015,172366,,,,,,,,,,,,,,
444,Wandsworth,1027,TOOTING BROADWAY,"Tooting High Street, London",SW17 0SU,,,London Underground Limited Station,Yes,Land & buildings ,Operational asset,FH,,,,527463,171426,,,,,,,,,,,,,,
445,City of Westminster,1031,TOTTENHAM COURT ROAD,"Oxford Street, London",W1D 2DH,,,London Underground Limited Station,Yes,Land & buildings ,Operational asset,FH,,,,529790,181362,,,,,,,,,,,,,,
446,Haringey,1032,TOTTENHAM HALE,"Ferry Lane, London",N17 9LR,,,London Underground Limited Station,Yes,Land & buildings ,Operational asset,FH,,,,534475,189477,,,,,,,,,,,,,,
447,Haringey,1034,TOTTENHAM HALE BUS STATION,"Ferry Lane, London",N17 9LJ,,,London Bus Services Limited Bus Premises,Yes,Land & buildings ,Operational asset,FH,,,,534451,189515,,,,,,,,,,,,,,
448,Barnet,1036,TOTTERIDGE,"Totteridge Lane, London",N20 9QP,,,London Underground Limited Station,Yes,Land & buildings ,Operational asset,FH,,,,526117,193953,,,,,,,,,,,,,,
449,City of London,1037,TOWER GATEWAY - DLR,"Mansell Street, London",EC3N 1JL,,,Docklands Light Railway Limited Station,Yes,Land & buildings ,Operational asset,LH,,,,533706,180834,,,,,,,,,,,,,,
450,Tower Hamlets,1038,TOWER HILL,"Trinity Square, London",EC3N 4DJ,,,London Underground Limited Station,Yes,Land & buildings ,Operational asset,OTH,,,,533590,180777,,,,,,,,,,,,,,
451,Tower Hamlets,1040,TOWER MILLENIUM PIER,"Lower Thames Street, London",EC3N 4DT,,,London River Services Limited Thames Pier,Yes,Land & buildings ,Operational asset,OTH,,,,533415,180463,,,,,,,,,,,,,,
452,Kingston upon Thames,1041,TOWN END PIER,"Portsmouth Road, Kingston upon Thames",KT1 1NB,,,London River Services Limited Thames Pier,Yes,Land & buildings ,Operational asset,OTH,,,,517776,168738,,,,,,,,,,,,,,
453,Islington,1043,TUFNELL PARK,"Brecknock Road, London",N19 5BQ,,,London Underground Limited Station,Yes,Land & buildings ,Operational asset,FH,,,,529186,185848,,,,,,,,,,,,,,
454,Kingston upon Thames,1046,KINGSTON PIER,"Thames Side, Kingston upon Thames",KT1 1TN,,,London River Services Limited Thames Pier,Yes,Land & buildings ,Operational asset,OTH,,,,517776,169526,,,,,,,,,,,,,,
455,Hounslow,1047,TURNHAM GREEN,"Turnham Green Terrace, Chiswick",W4 1LR,,,London Underground Limited Station,Yes,Land & buildings ,Operational asset,FH,,,,521267,178804,,,,,,,,,,,,,,
456,Haringey,1048,TURNPIKE LANE,"Green Lanes, London",N15 3NX,,,London Underground Limited Station,Yes,Land & buildings ,Operational asset,FH,,,,531524,189650,,,,,,,,,,,,,,
457,Haringey,1049,TURNPIKE LANE BUS STATION,"Green Lanes, London",N15 3EA,,,London Bus Services Limited Bus Premises,Yes,Land & buildings ,Operational asset,FH,,,,531564,189621,,,,,,,,,,,,,,
458,Richmond upon Thames,1050,TWICKENHAM,"Station Yard, Twickenham",TW1 4LG,,,London Bus Services Limited Bus Premises,Yes,Land & buildings ,Operational asset,FH,,,,516018,173597,,,,,,,,,,,,,,
459,Havering,1054,UPMINSTER,"Station Road, Upminster",RM14 2TD,,,London Underground Limited Station,Yes,Land & buildings ,Operational asset,OTH,,,,556141,186854,,,,,,,,,,,,,,
460,Havering,1056,UPMINSTER BRIDGE,"Upminster Road, Hornchurch",RM12 6PL,,,London Underground Limited Station,Yes,Land & buildings ,Operational asset,FH,,,,555080,186806,,,,,,,,,,,,,,
461,Havering,1057,UPMINSTER DEPOT,"Front Lane Cranham, Upminster",RM14 1XL,,,London Underground Limited Depot/Sidings,Yes,Land & buildings ,Operational asset,FH,,,,557038,187101,,,,,,,,,,,,,,
462,Barking and Dagenham,1059,UPNEY,"Upney Lane, London",IG11 9LS,,,London Underground Limited Station,Yes,Land & buildings ,Operational asset,FH,,,,545844,184260,,,,,,,,,,,,,,
463,Barking and Dagenham,1060,UPNEY SIDINGS,"Upney Lane, London",IG11 9XF,,,London Underground Limited Depot/Sidings,Yes,Land & buildings ,Operational asset,FH,,,,545156,184163,,,,,,,,,,,,,,
464,Islington,1062,Upper Holloway - Overground,"Holloway Road, London",N19 4DJ,,,London Overground Limited Station,Yes,Land & buildings ,Operational asset,OTH,,,,529776,186621,,,,,,,,,,,,,,
465,Newham,1064,UPTON PARK,"Green Street, London",E13 9AP,,,London Underground Limited Station,Yes,Land & buildings ,Operational asset,LH,,,,541257,183785,,,,,,,,,,,,,,
466,Hillingdon,1065,UXBRIDGE,"High Street, Uxbridge",UB8 1RG,,,London Underground Limited Station,Yes,Land & buildings ,Operational asset,FH,,,,505628,184171,,,,,,,,,,,,,,
467,Hillingdon,1066,UXBRIDGE (DISUSED),"High Street, Uxbridge",UB8 1RN,,,London Underground Limited Disused Station,Yes,Land & buildings ,Operational asset,OTH,,,,505802,184387,,,,,,,,,,,,,,
468,Hillingdon,1067,UXBRIDGE BUS STATION,"Bakers Road, Uxbridge",UB8 1SS,,,London Bus Services Limited Bus Premises,Yes,Land & buildings ,Operational asset,FH,,,,505678,184243,,,,,,,,,,,,,,
469,Hillingdon,1068,UXBRIDGE SIDINGS,"York Road, Uxbridge",UB8 1QN,,,London Underground Limited Depot/Sidings,Yes,Land & buildings ,Operational asset,FH,,,,505922,184347,,,,,,,,,,,,,,
470,Lambeth,1069,VAUXHALL,"Wandsworth Road, London",SW8 2LN,,,London Underground Limited Station,Yes,Land & buildings ,Operational asset,OTH,,,,530371,177986,,,,,,,,,,,,,,
471,Lambeth,1071,VAUXHALL BUS STATION,"Bondway, London",SE1 7TP,,,London Bus Services Limited Bus Premises,Yes,Land & buildings ,Operational asset,OTH,,,,530370,178021,,,,,,,,,,,,,,
472,City of Westminster,1072,VICTORIA,"Victoria Street, London",SW1E 5ND,,,London Underground Limited Station,Yes,Land & buildings ,Operational asset,FH,,,,528946,179130,,,,,,,,,,,,,,
473,City of Westminster,1074,VICTORIA COACH STN,"Elizabeth Street, London",SW1W 9RB,,,London Bus Services Limited Bus Premises,Yes,Land & buildings ,Operational asset,LH,,,,528592,178739,,,,,,,,,,,,,,
474,Croydon,1077,WADDON MARSH - TRAM,"Waddon New Road, Waddon",CR0 3RZ,,,London Bus Services Limited Tram Stop,Yes,Land & buildings ,Operational asset,FH,,,,531086,165898,,,,,,,,,,,,,,
475,Broxbourne,1082,WALTHAM CROSS BUS STATION,"Eleanor Cross Road, Waltham Cross",EN8 7LA,,,London Bus Services Limited Bus Premises,Yes,Land & buildings ,Operational asset,FH,,,,536172,200389,,,,,,,,,,,,,,
476,Waltham Forest,1083,WALTHAMSTOW CENTRAL,"Selbourne Road, London",E17 7LP,,,London Underground Limited Station,Yes,Land & buildings ,Operational asset,OTH,,,,537286,188986,,,,,,,,,,,,,,
477,Waltham Forest,1084,WALTHAMSTOW CENTRAL BUS STATION,"Selbourne Road, London",E17 7LP,,,London Bus Services Limited Bus Premises,Yes,Land & buildings ,Operational asset,LH,,,,537253,189074,,,,,,,,,,,,,,
478,Waltham Forest,1087,Walthamstow Queens Road - Overground,"Shrubland Road, London",E17 7QZ,,,London Overground Limited Station,Yes,Land & buildings ,Operational asset,OTH,,,,537018,188807,,,,,,,,,,,,,,
479,Croydon,1092,WANDLE PARK - TRAM,"Waddon New Road, Waddon",CR0 4JS,,,London Bus Services Limited Tram Stop,Yes,Land & buildings ,Operational asset,FH,,,,531413,165511,,,,,,,,,,,,,,
480,Redbridge,1098,WANSTEAD,"Eastern Avenue, London",E11 2NT,,,London Underground Limited Station,Yes,Land & buildings ,Operational asset,FH,,,,540680,188252,,,,,,,,,,,,,,
481,Newham,1099,Wanstead Park - Overground,"Woodgrange Road, London",E7 0HU,,,London Overground Limited Station,Yes,Land & buildings ,Operational asset,OTH,,,,540570,185590,,,,,,,,,,,,,,
482,Tower Hamlets,1101,Wapping - Overground,"Wapping High Street, London",E1W 3PA,,,London Overground Limited Station,Yes,Land & buildings ,Operational asset,FH,,,,535023,180174,,,,,,,,,,,,,,
483,Camden,1103,WARREN STREET,"Tottenham Court Road, London",NW1 3AA,,,London Underground Limited Station,Yes,Land & buildings ,Operational asset,FH,,,,529253,182272,,,,,,,,,,,,,,
484,City of Westminster,1104,WARWICK AVENUE,"Warwick Avenue, London",W9 2PT,,,London Underground Limited Station,Yes,Land & buildings ,Operational asset,OTH,,,,526107,182055,,,,,,,,,,,,,,
485,Lambeth,1105,WATERLOO,"Waterloo Road, London",SE1 7ND,,,London Underground Limited Station,Yes,Land & buildings ,Operational asset,FH,,,,530992,179979,,,,,,,,,,,,,,
486,Lambeth,1108,LONDON EYE MILLENIUM PIER,"Westminster Bridge Road, London",SE1 7EH,,,London River Services Limited Thames Pier,Yes,Land & buildings ,Operational asset,OTH,,,,530551,179953,,,,,,,,,,,,,,
487,Watford,1109,WATFORD,"Cassiobury Park Avenue, Watford",WD18 7LE,,,London Underground Limited Station,Yes,Land & buildings ,Operational asset,FH,,,,509580,196595,,,,,,,,,,,,,,
488,Watford,1110,Watford High Street - Overground,"Lower High Street, Watford",WD17 2NW,,,London Overground Limited Station,Yes,Land & buildings ,Operational asset,OTH,,,,511326,196075,,,,,,,,,,,,,,
489,Watford,1113,WATFORD SIDINGS,"Cassiobury Park Avenue, Watford",WD18 7JP,,,London Underground Limited Depot/Sidings,Yes,Land & buildings ,Operational asset,FH,,,,509233,196305,,,,,,,,,,,,,,
490,Croydon,1116,WELLESLEY ROAD - TRAM,"George Street, Croydon",CR0 2DD,,,London Bus Services Limited Tram Stop,Yes,Land & buildings ,Operational asset,OTH,,,,532508,165768,,,,,,,,,,,,,,
491,Brent,1119,Wembley Central - Overground,"High Road, Wembley",HA9 7BH,,,London Overground Limited Station,Yes,Land & buildings ,Operational asset,OTH,,,,518184,185126,,,,,,,,,,,,,,
492,Brent,1121,WEMBLEY PARK,"Bridge Road, Wembley",HA9 9AA,,,London Underground Limited Station,Yes,Land & buildings ,Operational asset,FH,,,,519373,186341,,,,,,,,,,,,,,
493,Brent,1122,WEMBLEY PARK SIDINGS,"Bridge Road, Wembley",HA9 9PF,,,London Underground Limited Depot/Sidings,Yes,Land & buildings ,Operational asset,FH,,,,519122,186541,,,,,,,,,,,,,,
494,Ealing,1127,WEST ACTON,"Station Parade, London",W3 0DS,,,London Underground Limited Station,Yes,Land & buildings ,Operational asset,FH,,,,519371,181290,,,,,,,,,,,,,,
495,Kensington and Chelsea,1128,WEST BROMPTON,"Old Brompton Road, London",SW5 9JX,,,London Underground Limited Station,Yes,Land & buildings ,Operational asset,FH,,,,525383,178030,,,,,,,,,,,,,,
496,Croydon,1130,WEST CROYDON - TRAM,"Station Road, Croydon",CR0 2RD,,,London Bus Services Limited Tram Stop,Yes,Land & buildings ,Operational asset,OTH,,,,532209,166141,,,,,,,,,,,,,,
497,Croydon,1131,WEST CROYDON BUS STATION,"Station Road, Croydon",CR0 2RB,,,London Bus Services Limited Bus Premises,Yes,Land & buildings ,Operational asset,LH,,,,532247,166153,,,,,,,,,,,,,,
498,Barnet,1137,WEST FINCHLEY,"Nether Street, London",N3 1NT,,,London Underground Limited Station,Yes,Land & buildings ,Operational asset,FH,,,,525537,191633,,,,,,,,,,,,,,
499,Newham,1138,WEST HAM,"Manor Road, London",E15 3BN,,,London Underground Limited Station,Yes,Land & buildings ,Operational asset,LH,,,,539182,182943,,,,,,,,,,,,,,
500,Camden,1141,West Hampstead - Overground,"West End Lane, London",NW6 2LJ,,,London Overground Limited Station,Yes,Land & buildings ,Operational asset,OTH,,,,525501,184727,,,,,,,,,,,,,,
501,Harrow,1145,WEST HARROW,"Vaughan Road, London",HA1 4HE,,,London Underground Limited Station,Yes,Land & buildings ,Operational asset,FH,,,,514226,188060,,,,,,,,,,,,,,
502,Tower Hamlets,1147,WEST INDIA QUAY - DLR,"Hertsmere Road, London",E14 4AN,,,Docklands Light Railway Limited Station,Yes,Land & buildings ,Operational asset,LH,,,,537495,180586,,,,,,,,,,,,,,
503,Hammersmith and Fulham,1148,WEST KENSINGTON,"West Cromwell Road, London",W14 9NL,,,London Underground Limited Station,Yes,Land & buildings ,Operational asset,FH,,,,524615,178371,,,,,,,,,,,,,,
504,Hillingdon,1152,WEST RUISLIP,"High Road, Ruislip",HA4 7DW,,,London Underground Limited Station,Yes,Land & buildings ,Operational asset,FH,,,,508364,186791,,,,,,,,,,,,,,
505,Newham,1153,WEST SILVERTOWN - DLR,"North Woolwich Road, London",E16 2AT,,,Docklands Light Railway Limited Station,Yes,Land & buildings ,Operational asset,FH,,,,540460,180156,,,,,,,,,,,,,,
506,Sutton,1154,WEST SUTTON,,SM1 1QJ,,,London Bus Services Limited Bus Premises,Yes,Land & buildings ,Operational asset,,,,,525412,164953,,,,,,,,,,,,,,
507,Kensington and Chelsea,1156,WESTBOURNE PARK,"Great Western Road, London",W11 1AB,,,London Underground Limited Station,Yes,Land & buildings ,Operational asset,LH,,,,524920,181764,,,,,,,,,,,,,,
508,Tower Hamlets,1158,WESTFERRY - DLR,"Westferry Road, London",E14 8AB,,,Docklands Light Railway Limited Station,Yes,Land & buildings ,Operational asset,FH,,,,537023,180798,,,,,,,,,,,,,,
509,City of Westminster,1159,WESTMINSTER,"Bridge Street, London",SW1A 2JN,,,London Underground Limited Station,Yes,Land & buildings ,Operational asset,LH,,,,530253,179691,,,,,,,,,,,,,,
510,City of Westminster,1161,WESTMINSTER MILLENIUM PIER,"Victoria Embankment, London",SW1A 2JH,,,London River Services Limited Thames Pier,Yes,Land & buildings ,Operational asset,LH,,,,530362,179796,,,,,,,,,,,,,,
511,Hammersmith and Fulham,1163,WHITE CITY,"Wood Lane, London",W12 7RH,,,London Underground Limited Station,Yes,Land & buildings ,Operational asset,FH,,,,523323,180730,,,,,,,,,,,,,,
512,Hammersmith and Fulham,1164,WHITE CITY DEPOT,"Wood Lane, London",W12 8AG,,,London Underground Limited Depot/Sidings,Yes,Land & buildings ,Operational asset,FH,,,,523491,180239,,,,,,,,,,,,,,
513,Tower Hamlets,1166,WHITECHAPEL,"Whitechapel Road, London",E1 1BY,,,London Underground Limited Station,Yes,Land & buildings ,Operational asset,FH,,,,534698,181851,,,,,,,,,,,,,,
514,Brent,1172,WILLESDEN GREEN,"Walm Lane, Cricklewood",NW2 4QT,,,London Underground Limited Station,Yes,Land & buildings ,Operational asset,FH,,,,523350,184884,,,,,,,,,,,,,,
515,Brent,1174,WILLESDEN JUNCTION,"Tubbs Road, London",NW10 4UY,,,London Underground Limited Station,Yes,Land & buildings ,Operational asset,OTH,,,,521879,182944,,,,,,,,,,,,,,
516,Merton,1175,WIMBLEDON,Wimbledon Hill Road,SW19 8NB,,,London Underground Limited Station,Yes,Land & buildings ,Operational asset,OTH,,,,524810,170687,,,,,,,,,,,,,,
517,Merton,1179,WIMBLEDON PARK,"Arthur Road, London",SW19 8AA,,,London Underground Limited Station,Yes,Land & buildings ,Operational asset,FH,,,,525246,172153,,,,,,,,,,,,,,
518,Haringey,1187,WOOD GREEN,"High Road, London",N22 5NZ,,,London Underground Limited Station,Yes,Land & buildings ,Operational asset,FH,,,,531030,190436,,,,,,,,,,,,,,
519,Hammersmith and Fulham,1189,WOOD LANE,"Wood Lane, London",W12 7SJ,,,London Underground Limited Station,Yes,Land & buildings ,Operational asset,FH,,,,523327,180498,,,,,,,,,,,,,,
520,Redbridge,1190,WOODFORD,"Snakes Lane, London",IG8 7QE,,,London Underground Limited Station,Yes,Land & buildings ,Operational asset,FH,,,,540949,191766,,,,,,,,,,,,,,
521,Redbridge,1193,WOODFORD SIDINGS,"Snakes Lane, London",IG8 7BX,,,London Underground Limited Depot/Sidings,Yes,Land & buildings ,Operational asset,FH,,,,540947,191636,,,,,,,,,,,,,,
522,Newham,1194,Woodgrange Park - Overground,"Romford Road, London",E7 8AY,,,London Overground Limited Station,Yes,Land & buildings ,Operational asset,OTH,,,,541821,185350,,,,,,,,,,,,,,
523,Croydon,1196,WOODSIDE - TRAM,"Spring Lane, Woodside",CR06RX,,,London Bus Services Limited Tram Stop,Yes,Land & buildings ,Operational asset,FH,,,,534698,167101,,,,,,,,,,,,,,
524,Barnet,1198,WOODSIDE PARK,"Woodside Park Road, London",N12 8LE,,,London Underground Limited Station,Yes,Land & buildings ,Operational asset,FH,,,,525725,192564,,,,,,,,,,,,,,
525,Greenwich,1199,WOOLWICH ARSENAL - DLR,"Woolwich New Road, London",SE18 6EU,,,Docklands Light Railway Limited Station,Yes,Land & buildings ,Operational asset,FH,,,,543731,178811,,,,,,,,,,,,,,
526,Greenwich,1200,WOOLWICH ARSENAL PIER,"Marlborough Road, London",SE18 6DL,,,London River Services Limited Thames Pier,Yes,Land & buildings ,Operational asset,OTH,,,,543859,179473,,,,,,,,,,,,,,
527,Newham,1203,WOOLWICH PIER,"Pier Road, London",E16 2JJ,,,London River Services Limited Thames Pier,Yes,Land & buildings ,Operational asset,OTH,,,,543114,179692,,,,,,,,,,,,,,
528,Islington,1209,YORK ROAD (DISUSED),"York Way, London",N1 0AZ,,,London Underground Limited Disused Station,Yes,Land & buildings ,Operational asset,FH,,,,530299,183837,,,,,,,,,,,,,,
529,City of London,1210,MARK LANE (DISUSED),"BYWARD STREET, London",EC3R 5BA,,,London Underground Limited Disused Station,Yes,Land & buildings ,Operational asset,FH,,,,533401,180734,,,,,,,,,,,,,,
530,Wandsworth,1211,WANDSWORTH RIVERSIDE QUARTER PIER,"Lighterman's Walk, London",SW18 1PS,,,London River Services Limited Thames Pier,Yes,Land & buildings ,Operational asset,OTH,,,,525105,175328,,,,,,,,,,,,,,
531,Richmond upon Thames,1212,KEW GARDENS,"Station Parade, Richmond",TW9 4HJ,,,London Underground Limited Station,Yes,Land & buildings ,Operational asset,LH,,,,519182,176743,,,,,,,,,,,,,,
532,Brent,1213,STONEBRIDGE PARK,"Argenta Way, Willesden",NW10 7RH,,,London Underground Limited Station,Yes,Land & buildings ,Operational asset,LH,,,,519690,184197,,,,,,,,,,,,,,
533,Islington,1214,OLD STREET,"Old Street, London",EC1Y 1BE,,,London Underground Limited Station,Yes,Land & buildings ,Operational asset,FH,,,,532768,182484,,,,,,,,,,,,,,
534,Camden,1215,WEST HAMPSTEAD,"Finchley Road, London",NW6 2LS,,,London Underground Limited Station,Yes,Land & buildings ,Operational asset,FH,,,,525552,184648,,,,,,,,,,,,,,
535,Brent,1216,Willesden Junction - Overground,"Tubbs Road, London",NW10 4UY,,,London Overground Limited Station,Yes,Land & buildings ,Operational asset,OTH,,,,521879,182944,,,,,,,,,,,,,,
536,Watford,1217,Watford Junction - Overground,"Station Road, Watford",WD24 4BA,,,London Overground Limited Station,Yes,Land & buildings ,Operational asset,OTH,,,,511021,197351,,,,,,,,,,,,,,
537,Watford,1218,Bushey - Overground,"Pinner Road, Watford",WD19 4EA,,,London Overground Limited Station,Yes,Land & buildings ,Operational asset,OTH,,,,511823,195237,,,,,,,,,,,,,,
538,Harrow,1219,Harrow & Wealdstone - Overground,"George Gange Way, North Harrow",HA3 5BY,,,London Overground Limited Station,Yes,Land & buildings ,Operational asset,OTH,,,,515420,189470,,,,,,,,,,,,,,
539,Barking and Dagenham,1220,Barking - Overground,"Station Parade, Barking",IG11 8TU,,,London Overground Limited Station,Yes,Land & buildings ,Operational asset,OTH,,,,544422,184332,,,,,,,,,,,,,,
540,Richmond upon Thames,1222,Richmond - Overground,"Kew Road, Richmond",TW9 2NQ,,,London Overground Limited Station,Yes,Land & buildings ,Operational asset,OTH,,,,518072,175174,,,,,,,,,,,,,,
541,Hounslow,1223,Gunnersbury - Overground,"Chiswick High Road, Chiswick",W4 4BD,,,London Overground Limited Station,Yes,Land & buildings ,Operational asset,OTH,,,,519813,178341,,,,,,,,,,,,,,
542,Hammersmith and Fulham,1224,Shepherds Bush - Overground,"Uxbridge Road, London",W12 8ND,,,London Overground Limited Station,Yes,Land & buildings ,Operational asset,OTH,,,,523720,179920,,,,,,,,,,,,,,
543,Hammersmith and Fulham,1225,Kensington Olympia - Overground,"Olympia Way, London",W14 0NE,,,London Overground Limited Station,Yes,Land & buildings ,Operational asset,OTH,,,,524351,179167,,,,,,,,,,,,,,
544,Kensington and Chelsea,1226,West Brompton - Overground,"Old Brompton Road, London",SW6 1RU,,,London Overground Limited Station,Yes,Land & buildings ,Operational asset,FH,,,,525397,178008,,,,,,,,,,,,,,
545,Wandsworth,1227,Clapham Junction - Overground,"St. Johns Hill, London",SW11 1RZ,,,London Overground Limited Station,Yes,Land & buildings ,Operational asset,OTH,,,,527211,175416,,,,,,,,,,,,,,
546,Hammersmith and Fulham,1228,Imperial Wharf - Overground,"Harbour Avenue, London",SW10 0RQ,,,London Overground Limited Station,Yes,Land & buildings ,Operational asset,OTH,,,,526291,176691,,,,,,,,,,,,,,
547,Brent,1229,Queens Park - Overground,"Salusbury Road, Kilburn",NW6 6NL,,,London Overground Limited Station,Yes,Land & buildings ,Operational asset,OTH,,,,524619,183223,,,,,,,,,,,,,,
548,Camden,1230,Euston - Overground,"Eversholt Street, London",NW1 2EF,,,London Overground Limited Station,Yes,Land & buildings ,Operational asset,OTH,,,,529608,182690,,,,,,,,,,,,,,
549,Islington,1231,HIGHBURY & ISLINGTON,"Highbury Corner, London",N7 8QL,,,London Underground Limited Station,Yes,Land & buildings ,Operational asset,FH,,,,531570,184748,,,,,,,,,,,,,,
550,Islington,1232,Highbury & Islington - Overground,"Highbury Corner, London",N1 1SZ,,,London Overground Limited Station,Yes,Land & buildings ,Operational asset,OTH,,,,531589,184732,,,,,,,,,,,,,,
551,Newham,1233,Stratford - Overground,"Meridian Square, London",E15 1AZ,,,London Overground Limited Station,Yes,Land & buildings ,Operational asset,OTH,,,,538521,184409,,,,,,,,,,,,,,
552,Waltham Forest,1234,Leytonstone High Road - Overground,"Leytonstone High Road, London",E11 4RA,,,London Overground Limited Station,Yes,Land & buildings ,Operational asset,OTH,,,,539245,186921,,,,,,,,,,,,,,
553,Bromley,1235,Crystal Palace - Overground,"Crystal Palace Station Road, London",SE19 2AZ,,,London Overground Limited Station,Yes,Land & buildings ,Operational asset,OTH,,,,534111,170555,,,,,,,,,,,,,,
554,Southwark,1236,Canada Water - Overground,"Deal Porter Way, Surrey Quays, London",SE16 7AJ,,,London Overground Limited Station,Yes,Land & buildings ,Operational asset,FH,,,,535475,179472,,,,,,,,,,,,,,
555,Tower Hamlets,1237,Shadwell - Overground,"Watney Street, London",E1 2QE,,,London Overground Limited Station,Yes,Land & buildings ,Operational asset,FH,,,,534932,180932,,,,,,,,,,,,,,
556,Tower Hamlets,1238,Whitechapel - Overground,"Whitechapel Road, London",E1 1BY,,,London Overground Limited Station,Yes,Land & buildings ,Operational asset,FH,,,,534698,181851,,,,,,,,,,,,,,
557,Hackney,1239,Shoreditch High Street - Overground,"Sclater Street, London",E1 6JU,,,London Overground Limited Station,Yes,Land & buildings ,Operational asset,OTH,,,,533555,182248,,,,,,,,,,,,,,
558,Hackney,1240,Hoxton - Overground,"Kingsland Road, London",E2 8HZ,,,London Overground Limited Station,Yes,Land & buildings ,Operational asset,FH,,,,533576,183148,,,,,,,,,,,,,,
559,Hackney,1241,Haggerston - Overground,"Kingsland Road, London",E8 4DT,,,London Overground Limited Station,Yes,Land & buildings ,Operational asset,FH,,,,533560,183992,,,,,,,,,,,,,,
560,Hackney,1242,Dalston Junction - Overground,"Dalston Lane, London",E8 4AH,,,London Overground Limited Station,Yes,Land & buildings ,Operational asset,FH,,,,533578,184692,,,,,,,,,,,,,,
561,Brent,1244,KENTON,"Kenton Road, London",HA3 0AZ,,,London Underground Limited Station,Yes,Land & buildings ,Operational asset,LH,,,,516698,188340,,,,,,,,,,,,,,
562,Newham,1245,CANNING TOWN,"Silvertown Way, London",E16 1DN,,,London Underground Limited Station,Yes,Land & buildings ,Operational asset,FH,,,,539443,181354,,,,,,,,,,,,,,
563,Brent,1246,WEMBLEY CENTRAL,"High Road, Wembley",HA0 2DH,,,London Underground Limited Station,Yes,Land & buildings ,Operational asset,OTH,,,,518181,185097,,,,,,,,,,,,,,
564,Lewisham,1247,New Cross - Overground,"New Cross Road, London",SE14 6LD,,,London Overground Limited Station,Yes,Land & buildings ,Operational asset,OTH,,,,536751,177109,,,,,,,,,,,,,,
565,Lewisham,1248,Brockley - Overground,Coulgate Street,SE4 2RW,,,London Overground Limited Station,Yes,Land & buildings ,Operational asset,OTH,,,,536431,175789,,,,,,,,,,,,,,
566,Lewisham,1249,Honor Oak Park - Overground,"Honor Oak Park, London",SE23 1EB,,,London Overground Limited Station,Yes,Land & buildings ,Operational asset,OTH,,,,535896,174137,,,,,,,,,,,,,,
567,Lewisham,1250,Forest Hill - Overground,"Devonshire Road, London",SE23 2NE,,,London Overground Limited Station,Yes,Land & buildings ,Operational asset,OTH,,,,535400,172936,,,,,,,,,,,,,,
568,Lewisham,1251,Sydenham - Overground,"Sydenham Road, London",SE26 4LE,,,London Overground Limited Station,Yes,Land & buildings ,Operational asset,OTH,,,,535369,171585,,,,,,,,,,,,,,
569,Bromley,1252,Penge West - Overground,"High Street, London",SE20 8NU,,,London Overground Limited Station,Yes,Land & buildings ,Operational asset,OTH,,,,534942,170503,,,,,,,,,,,,,,
570,Bromley,1253,Anerley - Overground,"Anerley Station Road, London",SE20 8PY,,,London Overground Limited Station,Yes,Land & buildings ,Operational asset,OTH,,,,534617,169899,,,,,,,,,,,,,,
571,Croydon,1254,Norwood Junction - Overground,"Station Road, South Norwood",SE25 5AG,,,London Overground Limited Station,Yes,Land & buildings ,Operational asset,OTH,,,,534012,168233,,,,,,,,,,,,,,
572,Croydon,1255,West Croydon - Overground,"North End, Croydon",CR0 1UF,,,London Overground Limited Station,Yes,Land & buildings ,Operational asset,OTH,,,,532133,166072,,,,,,,,,,,,,,
573,City of London,1256,BANK - DLR,"Mansion House Street, London",EC2R 8BD,,,Docklands Light Railway Limited Station,Yes,Land & buildings ,Operational asset,OTH,,,,532709,181114,,,,,,,,,,,,,,
574,Newham,1257,WEST HAM - DLR,"Manor Road, London",E15 3BN,,,Docklands Light Railway Limited Station,Yes,Land & buildings ,Operational asset,LH,,,,539182,182943,,,,,,,,,,,,,,
575,Newham,1258,STRATFORD - DLR,"Meridian Square, London",E15 1AZ,,,Docklands Light Railway Limited Station,Yes,Land & buildings ,Operational asset,OTH,,,,538571,184387,,,,,,,,,,,,,,
576,Newham,1259,STAR LANE - DLR,"Manor Road, London",E16 4RG,,,Docklands Light Railway Limited Station,Yes,Land & buildings ,Operational asset,OTH,,,,539145,182115,,,,,,,,,,,,,,
577,Newham,1260,ABBEY ROAD - DLR,"Abbey Road, London",E15 3NB,,,Docklands Light Railway Limited Station,Yes,Land & buildings ,Operational asset,OTH,,,,539077,183399,,,,,,,,,,,,,,
578,Newham,1261,STRATFORD HIGH STREET - DLR,"Burford Road, London",E15 4QZ,,,Docklands Light Railway Limited Station,Yes,Land & buildings ,Operational asset,OTH,,,,538752,184020,,,,,,,,,,,,,,
579,Newham,1262,STRATFORD INTERNATIONAL - DLR,"Stratford, London",E15 2EG,,,Docklands Light Railway Limited Station,Yes,Land & buildings ,Operational asset,OTH,,,,538128,184761,,,,,,,,,,,,,,
580,Merton,1263,WIMBLEDON - TRAM,"Railway Place, London",SW19 8LR,,,London Bus Services Limited Tram Stop,Yes,Land & buildings ,Operational asset,OTH,,,,524836,170667,,,,,,,,,,,,,,
581,Bromley,1264,BIRBECK - TRAM,"Elmers End Road, Beckenham",SE20 7YA,,,London Bus Services Limited Tram Stop,Yes,Land & buildings ,Operational asset,OTH,,,,535311,168968,,,,,,,,,,,,,,
582,Richmond upon Thames,1265,TWICKENHAM PIER,"Riverside, Richmond",TW1 3BL,,,London River Services Limited Thames Pier,Yes,Land & buildings ,Operational asset,OTH,,,,517245,173369,,,,,,,,,,,,,,
583,City of Westminster,1266,Albany House,"Petty France, London",SW1H 9EA,,,Transport for London Office Accommodation,Yes,Land & buildings ,Operational asset,LH,,,,529559,179491,,,,,,,,,,,,,,
584,Hammersmith and Fulham,1267,Ashfield House,"West Cromwell Road, London",W14 9UY,,,Transport for London Office Accommodation,Yes,Land & buildings ,Operational asset,FH,,,,524816,178432,,,,,,,,,,,,,,
585,City of Westminster,1268,Baker Street Complex,"Marylebone Road, London",NW1 5LJ,,,Transport for London Office Accommodation,Yes,Land & buildings ,Operational asset,FH,,,,527974,182038,,,,,,,,,,,,,,
586,City of Westminster,1269,Broadway Complex,"Broadway, London",SW1H 0BD,,,Transport for London Office Accommodation,Yes,Land & buildings ,Operational asset,FH,,,,529627,179484,,,,,,,,,,,,,,
587,City of Westminster,1270,172 Buckingham Palace Road,"Buckingham Palace Road, London",SW1W 9TN,,,Transport for London Office Accommodation,Yes,Land & buildings ,Operational asset,FH,,,,528654,178686,,,,,,,,,,,,,,
588,City of Westminster,1271,200 Buckingham Palace Road,"Buckingham Palace Road, London",SW1W 9TA,,,Transport for London Office Accommodation,Yes,Land & buildings ,Operational asset,FH,,,,528617,178622,,,,,,,,,,,,,,
589,City of Westminster,1272,Cranbourn Street,"Cranbourn Street, London",WC2H 7AA,,,Transport for London Office Accommodation,Yes,Land & buildings ,Operational asset,OTH,,,,530011,180835,,,,,,,,,,,,,,
590,Kensington and Chelsea,1275,Griffin Rooms,"Pelham Street, London",SW7 2NJ,,,Transport for London Office Accommodation,Yes,Land & buildings ,Operational asset,FH,,,,527040,178795,,,,,,,,,,,,,,
591,City of Westminster,1276,Griffith House,"Chapel Street, London",NW1 5RJ,,,Transport for London Office Accommodation,Yes,Land & buildings ,Operational asset,FH,,,,527345,181747,,,,,,,,,,,,,,
592,City of Westminster,1278,Lost Property Office,"Baker Street, London",NW1 5RZ,,,Transport for London Office Accommodation,Yes,Land & buildings ,Operational asset,FH,,,,527919,182026,,,,,,,,,,,,,,
593,City of Westminster,1279,LT Museum,"Wellington Street, London",WC2E 7BB,,,Transport for London Office Accommodation,Yes,Land & buildings ,Operational asset,LH,,,,530446,180913,,,,,,,,,,,,,,
594,Ealing,1280,Museum Collection Centre,"Granville Gardens, London",W3 9BQ,,,Transport for London Office Accommodation,Yes,Land & buildings ,Operational asset,FH,,,,519352,179850,,,,,,,,,,,,,,
595,City of London,1281,Old Broad Street,"Liverpool Street, London",EC2M 1QS,,,Transport for London Office Accommodation,Yes,Land & buildings ,Operational asset,FH,,,,533105,181557,,,,,,,,,,,,,,
596,Southwark,1282,Palestra,"Blackfriars Road, London",SE1 8NJ,,,Transport for London Office Accommodation,Yes,Land & buildings ,Operational asset,LH,,,,531709,180031,,,,,,,,,,,,,,
597,Kensington and Chelsea,1284,Pelham Street,"Pelham Street, London",SW7 2NJ,,,Transport for London Office Accommodation,Yes,Land & buildings ,Operational asset,LH,,,,527126,178790,,,,,,,,,,,,,,
598,Greenwich,1285,Pier Walk,"Pier Walk, London",SE10 0ES,,,Transport for London Office Accommodation,Yes,Land & buildings ,Operational asset,LH,,,,539361,179911,,,,,,,,,,,,,,
599,Brent,1286,Premier House,"Kilburn Lane, London",W9 3EG,,,Transport for London Office Accommodation,Yes,Land & buildings ,Operational asset,FH,,,,524615,183111,,,,,,,,,,,,,,
600,Islington,1287,Public Carriage Office,"Penton Street, London",N1 9PU,,,Transport for London Office Accommodation,Yes,Land & buildings ,Operational asset,FH,,,,531063,183161,,,,,,,,,,,,,,
601,Camden,1288,Templar House,"High Holborn, London",WC1V 6NU,,,Transport for London Office Accommodation,Yes,Land & buildings ,Operational asset,LH,,,,530711,181584,,,,,,,,,,,,,,
602,City of Westminster,1289,Townsend House,"Greycoat Place, London",SW1P 1BL,,,Transport for London Office Accommodation,Yes,Land & buildings ,Operational asset,LH,,,,529529,179124,,,,,,,,,,,,,,
603,City of Westminster,1290,Victoria Station House,"Victoria Street, London",SW1E 5NE,,,Transport for London Office Accommodation,Yes,Land & buildings ,Operational asset,FH,,,,528942,179139,,,,,,,,,,,,,,
604,City of Westminster,1291,LT Museum Offices,"Wellington Street, London",WC2E 7BN,,,Transport for London Office Accommodation,Yes,Land & buildings ,Operational asset,LH,,,,530500,180906,,,,,,,,,,,,,,
605,City of Westminster,1292,Western House,"Oxford Street, London",W1R 1AB,,,Transport for London Office Accommodation,Yes,Land & buildings ,Operational asset,FH,,,,529086,181227,,,,,,,,,,,,,,
606,City of Westminster,1293,Windsor House,"Victoria Street, London",SW1H 0TL,,,Transport for London Office Accommodation,No,Land & buildings ,Subject to disposal process,LH,,,,529544,179300,,,,,,,,,,,,,,
607,Southwark,1295,Queens Road Peckham - Overground,"Queen's Road, London",SE15 2ND,,,London Overground Limited Station,Yes,Land & buildings ,Operational asset,OTH,,,,535011,176751,,,,,,,,,,,,,,
608,Southwark,1296,Peckham Rye - Overground,"Rye Lane, London",SE15 4QL,,,London Overground Limited Station,Yes,Land & buildings ,Operational asset,OTH,,,,534154,176288,,,,,,,,,,,,,,
609,Southwark,1297,Denmark Hill - Overground,"Denmark Hill, London",SE5 8BB,,,London Overground Limited Station,Yes,Land & buildings ,Operational asset,OTH,,,,532792,176078,,,,,,,,,,,,,,
610,Lambeth,1298,Clapham High Street - Overground,"Clapham High Street, London",SW4 6DA,,,London Overground Limited Station,Yes,Land & buildings ,Operational asset,OTH,,,,529804,175717,,,,,,,,,,,,,,
611,Lambeth,1299,Wandsworth Road - Overground,"Wandsworth Road, London",SW4 6AA,,,London Overground Limited Station,Yes,Land & buildings ,Operational asset,OTH,,,,529390,176196,,,,,,,,,,,,,,
612,Wandsworth,1300,Battersea Park - Overground,"Battersea Park Road, London",SW8 4LR,,,London Overground Limited Station,Yes,Land & buildings ,Operational asset,OTH,,,,528754,176955,,,,,,,,,,,,,,
613,Ealing,3218,Land at 21-24 Hanger Lane,"Junction of Inglis Road, Ealing",W5 3RH,,,(TfL Streets) Sold subject to contract,No,Land & buildings ,Subject to disposal process,FH,,2800,,518654,180884,,,,,,,,,,,,,,
614,Ealing,9877,Acton Works Sports Ground,"Gunnersbury Lane, Acton",W3 8JY,,,(LU) Leased land,Yes,Land & buildings ,Limited marketability,FH,,32688,,519459,178969,,,,,,,,,,,,,,
615,Barnet,14151,"1, 7, 9,15  & 46 Brentmead Place","Brentmead Place, London NW11",NW11 9JD,,,Subject to decision by TfL Road Task Force,No,Land & buildings ,Limited marketability,FH,,,,,,,,,,,,,,,,,,,
616,Ealing,19807,Site 5 Western Avenue,"Western Avenue, Acton, London",W3 0PU,,,Available - earmarked for advertising,No,Land only,Subject to disposal process,FH,,726,,520574,181768,,,,,,,,,,,,,,
617,Three Rivers,30758,Croxley Green,"Land at Baldwins Lane, Croxley Green, Hertfordshire",WD3 3GD,,,Being promoted for housing,No,Land only,Subject to disposal process,FH,,129029,,508698,196241,,,,,,,,,,,,,,
618,Ealing,31213,Site 6 Western Avenue,"Horn Lane/Western Avenue, Acton, London",W3 6TH,,,Available - earmarked for advertising,No,Land only,Subject to disposal process,FH,,844,,520563,181633,,,,,,,,,,,,,,
619,Greenwich,C1,Abbey Wood - CROSSRAIL,"Wilton Road, Abbey Wood, London",SE2 9RH,,,Crossrail Station (Under construction),Yes,Land & buildings ,Operational asset,OTH,,,,547358,179032,,,,,,,,,,,,,,
620,Islington,C10,Farringdon - CROSSRAIL,"Cowcross Street, London",EC1M 6BY,,,Crossrail Station (Under construction),Yes,Land & buildings ,Operational asset,OTH,,,,531572,181776,,,,,,,,,,,,,,
621,Newham,C11,Forest Gate - CROSSRAIL,"Woodgrange Road, London",E7 0NF,,,Crossrail Station (TfL Rail),Yes,Land & buildings ,Operational asset,OTH,,,,540477,185347,,,,,,,,,,,,,,
622,Havering,C12,Gidea Park - CROSSRAIL,"Station Road, Gidea Park, Romford",RM2 6BX,,,Crossrail Station (TfL Rail),Yes,Land & buildings ,Operational asset,OTH,,,,552927,189268,,,,,,,,,,,,,,
623,Redbridge,C13,Goodmayes - CROSSRAIL,"Goodmayes Road, Goodmayes, Ilford",IG3 9UH,,,Crossrail Station (TfL Rail),Yes,Land & buildings ,Operational asset,OTH,,,,546389,187311,,,,,,,,,,,,,,
624,Ealing,C14,Hanwell - CROSSRAIL,"Campbell Road, Hanwell",W7 3EB,,,Crossrail Station (Under construction),Yes,Land & buildings ,Operational asset,OTH,,,,515583,180111,,,,,,,,,,,,,,
625,Havering,C15,Harold Wood - CROSSRAIL,"Station Road, London",RM3 0BL,,,Crossrail Station (TfL Rail),Yes,Land & buildings ,Operational asset,OTH,,,,554754,190604,,,,,,,,,,,,,,
626,Hillingdon,C16,Hayes & Harlington - CROSSRAIL,"Station Road, Hayes",UB3 4BX,,,Crossrail Station (Under construction),Yes,Land & buildings ,Operational asset,OTH,,,,509721,179423,,,,,,,,,,,,,,
627,Hillingdon,C17,Heathrow - CROSSRAIL,"Great South West Road, Hounslow",TW6 1SL,,,Crossrail Station (Under construction),Yes,Land & buildings ,Operational asset,OTH,,,,507587,175838,,,,,,,,,,,,,,
628,Redbridge,C18,Ilford - CROSSRAIL,"Cranbrook Road, Ilford",IG1 4DU,,,Crossrail Station (TfL Rail),Yes,Land & buildings ,Operational asset,OTH,,,,543588,186509,,,,,,,,,,,,,,
629,South Bucks,C19,Iver - CROSSRAIL,"Wellesey Avenue, Richings Park, Iver",SL0 9AU,,,Crossrail Station (Under construction),Yes,Land & buildings ,Operational asset,OTH,,,,503756,179890,,,,,,,,,,,,,,
630,Ealing,C2,Acton Main Line - CROSSRAIL,"Horn Lane, Acton, London",W3 0BP,,,Crossrail Station (Under construction),Yes,Land & buildings ,Operational asset,OTH,,,,520368,181238,,,,,,,,,,,,,,
631,Slough,C20,Langley - CROSSRAIL,"Station Road, Langley, Slough",SL3 6DB,,,Crossrail Station (Under construction),Yes,Land & buildings ,Operational asset,OTH,,,,501284,179801,,,,,,,,,,,,,,
632,City of London,C21,Liverpool Street - CROSSRAIL,"Liverpool Street, London",EC2M 1QT,,,Crossrail Station (TfL Rail),Yes,Land & buildings ,Operational asset,OTH,,,,533013,181563,,,,,,,,,,,,,,
633,Winsor and Maidenhead,C22,MaidenHead - CROSSRAIL,"Station Approach, Maidenhead",SL6 1EW,,,Crossrail Station (Under construction),Yes,Land & buildings ,Operational asset,OTH,,,,488696,180723,,,,,,,,,,,,,,
634,Newham,C23,Manor Park - CROSSRAIL,"Station Road, Manor Park",E12 SEP,,,Crossrail Station (TfL Rail),Yes,Land & buildings ,Operational asset,OTH,,,,541936,185689,,,,,,,,,,,,,,
635,Newham,C24,Maryland - CROSSRAIL,"Maryland Point, Leytonstone High Road, Stratford",E15 1SA,,,Crossrail Station (TfL Rail),Yes,Land & buildings ,Operational asset,OTH,,,,539183,184933,,,,,,,,,,,,,,
636,City of Westminster,C25,Paddington - CROSSRAIL,"Craven Road, London",W2 1RH,,,Crossrail Station (Under construction),Yes,Land & buildings ,Operational asset,OTH,,,,526485,181542,,,,,,,,,,,,,,
637,Havering,C26,Romford - CROSSRAIL,"South Street, Romford",RM1 1SX,,,Crossrail Station (TfL Rail),Yes,Land & buildings ,Operational asset,OTH,,,,551387,188501,,,,,,,,,,,,,,
638,Redbridge,C27,Seven Kings - CROSSRAIL,"High Road, Seven Kings",IG3 8RE,,,Crossrail Station (TfL Rail),Yes,Land & buildings ,Operational asset,OTH,,,,545466,187089,,,,,,,,,,,,,,
639,Brentwood,C28,Shenfield - CROSSRAIL,"Hutton Road, Shenfield",CM15 8JD,,,Crossrail Station (TfL Rail),Yes,Land & buildings ,Operational asset,OTH,,,,561343,194993,,,,,,,,,,,,,,
640,Slough,C29,Slough - CROSSRAIL,"Brunel Way, Slough",SL1 1XW,,,Crossrail Station (Under construction),Yes,Land & buildings ,Operational asset,OTH,,,,497832,180178,,,,,,,,,,,,,,
641,City of Westminster,C3,Bond Street - CROSSRAIL,"Oxford Street, London",W1K 5HJ,,,Crossrail Station (Under construction),Yes,Land & buildings ,Operational asset,OTH,,,,528522,181013,,,,,,,,,,,,,,
642,Ealing,C30,Southall - CROSSRAIL,"South Road, Southall",UB2 4AA,,,Crossrail Station (Under construction),Yes,Land & buildings ,Operational asset,OTH,,,,512626,179795,,,,,,,,,,,,,,
643,Newham,C31,Stratford - CROSSRAIL,"Meridian Square, London",E15 1AZ,,,Crossrail Station (TfL Rail),Yes,Land & buildings ,Operational asset,OTH,,,,538571,184387,,,,,,,,,,,,,,
644,South Bucks,C32,Taplow - CROSSRAIL,"Station Road, Taplow, Maidenhead",SL6 0NU,,,Crossrail Station (Under construction),Yes,Land & buildings ,Operational asset,OTH,,,,491590,181307,,,,,,,,,,,,,,
645,City of Westminster,C33,Tottenham Court Road - CROSSRAIL,"Oxford Street, London",W1D 2DH,,,Crossrail Station (Under construction),Yes,Land & buildings ,Operational asset,FH,,,,529565,181281,,,,,,,,,,,,,,
646,Hillingdon,C34,West Drayton - CROSSRAIL,"Station Approach, West Drayton",UB7 9DY,,,Crossrail Station (Under construction),Yes,Land & buildings ,Operational asset,OTH,,,,506103,180123,,,,,,,,,,,,,,
647,Ealing,C35,West Ealing - CROSSRAIL,"Drayton Green Road, West Ealing",W13 0NQ,,,Crossrail Station (Under construction),Yes,Land & buildings ,Operational asset,OTH,,,,516686,180729,,,,,,,,,,,,,,
648,Tower Hamlets,C36,Whitechapel - CROSSRAIL,"Whitechapel Road, London",E1 1BY,,,Crossrail Station (Under construction),Yes,Land & buildings ,Operational asset,OTH,,,,534662,181936,,,,,,,,,,,,,,
649,Greenwich,C37,Woolwich - CROSSRAIL,"Plumstead Road, Woolwich",SE18 6SW,,,Crossrail Station (Under construction),Yes,Land & buildings ,Operational asset,FH,,,,544027,178983,,,,,,,,,,,,,,
650,Brentwood,C4,Brentwood - CROSSRAIL,"Kings Road, Brentwood",CM14 4EW,,,Crossrail Station (TfL Rail),Yes,Land & buildings ,Operational asset,OTH,,,,559316,193023,,,,,,,,,,,,,,
651,Slough,C5,Burnham - CROSSRAIL,"Station Road, Cippenham, Burnham, Buckinghamshire",SL1 6JT,,,Crossrail Station (Under construction),Yes,Land & buildings ,Operational asset,OTH,,,,493996,181357,,,,,,,,,,,,,,
652,Tower Hamlets,C6,Canary Wharf - CROSSRAIL,"Heron Quays Road, Canary Wharf, London",E14 5AJ,,,Crossrail Station (Under construction),Yes,Land & buildings ,Operational asset,OTH,,,,537724,180439,,,,,,,,,,,,,,
653,Barking and Dagenham,C7,Chadwell Heath - CROSSRAIL,"Station Road, Chadwell Heath",RM6 4BU,,,Crossrail Station (TfL Rail),Yes,Land & buildings ,Operational asset,OTH,,,,547688,187615,,,,,,,,,,,,,,
654,Newham,C8,Custom House - CROSSRAIL,"Victoria Dock Road, London",E16 1DR,,,Crossrail Station (Under construction),Yes,Land & buildings ,Operational asset,OTH,,,,540663,180959,,,,,,,,,,,,,,
655,Ealing,C9,Ealing Broadway - CROSSRAIL,"The Broadway, London",W5 2NU,,,Crossrail Station (Under construction),Yes,Land & buildings ,Operational asset,OTH,,,,517956,180929,,,,,,,,,,,,,,
656,Barnet,13923,46 Brentmead Place,North Circular Road,NW119LJ,,,Being marketed via the Small Sites programme.,No,Land & buildings ,Subject to disposal process,FH,,,,,,,,,,,,,,,,,,,
